FID,globalid,nhfr_uid,nhfr_facil,country,iso,state,lga,lga_name_d,ward,ward_name_,facility_n,facility_1,ownership,ownership_,facility_l,facility_2,latitude,longitude,geocoordin,last_updat,x,y
1,ad30c019-a101-4882-9115-afda390f686d,41032807,22/17/1/1/1/0035,Nigeria,NGA,Kogi,Okene,0,Bariki,0,Unique Clinic,NHFR_2024,Private,For Profit,Secondary,Primary Health Center,7.552998,6.230045,GRID3_EHEALTH,2024-11-11,6.23004500000008,7.55299800000006
2,88a94c99-51e7-4200-a1b8-031ad4dbc6e6,78209502,22/13/1/2/2/0001,Nigeria,NGA,Kogi,Mopa-Muro,0,Ileteju 2,0,Ecwa Takete Hospital,NHFR_2024,Private,For Profit,Secondary,Primary Health Center,8.125052,5.895342,GRID3_EHEALTH,2024-11-11,5.89534200000003,8.12505200000004
3,3c7aff45-b2c1-4d9b-9741-8cda7c970f97,16139648,22/19/1/1/1/0001,Nigeria,NGA,Kogi,Omala,0,Abejukolo 1,0,Abejukolo Primary Health Center,NHFR_2024,Public,Local Government,Primary,Primary Health Center,7.868285,7.507332,GRID3_EHEALTH,2024-11-11,7.50733200000008,7.86828500000006
4,4b4f72f7-dfe7-439c-945d-76e6305eb0f4,21553869,20/09/1/1/1/0051,Nigeria,NGA,Katsina,Danja,0,Kahutu B,0,Gidan Na Masari Health Clinic,NHFR_2024,Public,Local Government,Primary,Primary Health Clinic,11.345766,7.6974825,GRID3_EHEALTH,2024-11-11,7.69748250000004,11.345766
5,471b43df-d3f7-40d3-9798-25780a9770b9,29505051,20/09/1/1/1/0007,Nigeria,NGA,Katsina,Danja,0,Kahutu B,0,Chediya Health Clinic,NHFR_2024,Public,Local Government,Primary,Primary Health Clinic,11.3800234,7.7348724,GRID3_EHEALTH,2024-11-11,7.73487240000003,11.3800234
6,d3466535-0131-40d4-b184-bbd6410e4809,80847171,20/17/1/1/1/0054,Nigeria,NGA,Katsina,Kafur,0,Dantuture,0,Gidan Gigo Health Clinic,NHFR_2024,Public,Local Government,Primary,Primary Health Clinic,11.7543054,7.8553588,GRID3_EHEALTH,2024-11-11,7.85535880000003,11.7543054
7,860e2464-cf33-43fb-b90a-d993a7e5280b,70062109,20/08/1/1/1/0041,Nigeria,NGA,Katsina,Dandume,0,Dantankari,0,Unguwar Soro Health Clinic,NHFR_2024,Public,Local Government,Primary,Primary Health Clinic,11.4256274,7.2343123,GRID3_EHEALTH,2024-11-11,7.23431230000006,11.4256274000001
8,9e0e8c29-79c7-4b2a-b462-feb464e43a7a,17504541,20/24/1/1/1/0019,Nigeria,NGA,Katsina,Mai'Adua,0,Mai Adua A,0,Mai'Adua Maternity and  Child Health Clinic,NHFR_2024,Public,Unknown,Primary,Primary Health Center,13.17689333,8.238453333,GRID3_EHEALTH,2024-11-11,8.23845333300005,13.17689333
9,08fdc43f-ef88-4ac8-843b-218f626f4fdf,29389831,20/24/1/1/1/0048,Nigeria,NGA,Katsina,Mai'Adua,0,Maikomi A,0,Yarogel Health Clinic,NHFR_2024,Public,Local Government,Primary,Primary Health Clinic,13.06229667,8.253096667,GRID3_EHEALTH,2024-11-11,8.25309666700002,13.06229667
10,9ed2278f-c6b1-45d6-8b62-d0bcda795e8c,39768836,20/24/1/1/1/0055,Nigeria,NGA,Katsina,Mai'Adua,0,Maikomi A,0,Karatsa Health Clinic,NHFR_2024,Public,Local Government,Primary,Primary Health Clinic,13.04956667,8.249591667,GRID3_EHEALTH,2024-11-11,8.24959166700006,13.04956667
11,b3d5d491-b575-4b18-ad67-83ee57aca8da,85837683,20/24/1/1/1/0036,Nigeria,NGA,Katsina,Mai'Adua,0,Maikomi A,0,Haukan Zama Health Clinic,NHFR_2024,Public,Local Government,Primary,Primary Health Center,13.03390167,8.238886667,GRID3_EHEALTH,2024-11-11,8.23888666700003,13.03390167
12,e716b48c-fb2a-4bdf-8f7b-a002125f6618,32802080,25/11/1/1/1/0087,Nigeria,NGA,Nasarawa,Obi,0,Agwatashi,0,Azomeh Memorial (Agwatashi) Clinic,NHFR_2024,Private,For Profit,Primary,Primary Health Clinic,8.319519043,8.858276367,GRID3_EHEALTH,2024-11-11,8.85827636700003,8.31951904300007
13,901bfd09-1739-4885-a126-45437c165197,40219606,20/04/1/1/1/0048,Nigeria,NGA,Katsina,Baure,0,Unguwar Rai,0,Baggade Health Clinic,NHFR_2024,Public,Local Government,Primary,Primary Health Clinic,12.702627,8.8404781,GRID3_EHEALTH,2024-11-11,8.84047810000004,12.7026270000001
14,63297cfa-2a05-48f6-ab16-1bd171e96f64,38464714,20/04/1/1/1/0039,Nigeria,NGA,Katsina,Baure,0,Faski,0,Shado Health Clinic,NHFR_2024,Public,Local Government,Primary,Primary Health Clinic,12.8388784,8.8379968,GRID3_EHEALTH,2024-11-11,8.83799680000004,12.8388784
15,d4929709-52b7-41c6-8b5a-15f6c5810961,39718540,20/06/1/1/1/0024,Nigeria,NGA,Katsina,Charanchi,0,Koda,0,Farin Ruwa Health Clinic,NHFR_2024,Public,Local Government,Primary,Primary Health Clinic,12.66140667,7.687231667,GRID3_EHEALTH,2024-11-11,7.68723166700005,12.6614066700001
16,fd36f608-35bf-432a-9194-8fe11c8f826d,41799989,20/04/1/1/1/0043,Nigeria,NGA,Katsina,Baure,0,Faski,0,Maimazari Health Clinic,NHFR_2024,Public,Local Government,Primary,Primary Health Center,12.8790308,8.7765146,GRID3_EHEALTH,2024-11-11,8.77651460000004,12.8790308000001
17,518c16cf-700c-4472-8312-d9a4f8a31ef2,53842175,20/18/1/1/1/0022,Nigeria,NGA,Katsina,Kaita,0,Yanhoho,1,Kafin Mashi Health Clinic,NHFR_2024,Public,Local Government,Primary,Primary Health Clinic,13.05396161,7.69946652,GRID3_EHEALTH,2024-11-11,7.69946652000004,13.05396161
18,b40b3996-ce6a-4ff7-96a6-ae6070561220,41469189,20/04/1/1/1/0040,Nigeria,NGA,Katsina,Baure,0,Faski,0,Tsaya Health Clinic,NHFR_2024,Public,Local Government,Primary,Primary Health Clinic,12.8697041,8.7405726,GRID3_EHEALTH,2024-11-11,8.74057260000006,12.8697041
19,8d03e58d-d636-45a2-9562-bc5304aa7e2c,75329705,   20/14/1/1/1/0026,Nigeria,NGA,Katsina,Funtua,0,Mai Gamji,0,Jabiri Health Post,NHFR_2024,Public,Local Government,Primary,Primary Health Clinic,11.4945529,7.3172868,GRID3_EHEALTH,2024-11-11,7.31728680000003,11.4945529
20,bea9d296-46e0-4ef3-84b8-05af4f413929,62634442,20/14/1/1/1/0019,Nigeria,NGA,Katsina,Funtua,0,Mai Gamji,1,Dankawo Health Clinic,NHFR_2024,Public,Local Government,Primary,Primary Health Clinic,11.4009003,7.3319949,GRID3_EHEALTH,2024-11-11,7.33199490000004,11.4009003
21,adb153ee-0139-4fbf-a7c3-ea916ef8df29,54961357,20/21/1/1/1/0028,Nigeria,NGA,Katsina,Katsina,0,Kudu 3,0,Sabuwar Unguwar Health Clinic,NHFR_2024,Public,Unknown,Primary,Primary Health Center,12.97187333,7.607256667,GRID3_EHEALTH,2024-11-11,7.60725666700006,12.9718733300001
22,ae41cd97-1877-4228-8789-e87d4f251c31,56011094,20/20/1/1/1/0040,Nigeria,NGA,Katsina,Kankia,0,Rimaye,1,Duza Health Clinic,NHFR_2024,Public,Unknown,Primary,Primary Health Center,12.35857,7.784151667,GRID3_EHEALTH,2024-11-11,7.78415166700006,12.35857
23,086f1d56-f90e-4e99-9dc4-2d64435c3e22,21238618,20/30/1/1/1/0001,Nigeria,NGA,Katsina,Rimi,0,Abukur,0,Abukur Comprehensive Health Center,NHFR_2024,Public,Local Government,Primary,Primary Health Center,12.8661529,7.6623228,GRID3_EHEALTH,2024-11-11,7.66232280000003,12.8661529
24,8db7dbcb-df56-48f8-9cba-24f760e398bc,37174332,20/03/1/1/1/0057,Nigeria,NGA,Katsina,Batsari,0,Darini Magaji Abu,0,Shekewa Maternity and Child Clinic,NHFR_2024,Public,Local Government,Primary,Primary Health Clinic,12.88311,7.192865,GRID3_EHEALTH,2024-11-11,7.19286500000004,12.88311
25,e1f24454-914f-4679-b64b-d5fb76c5faed,44743232,20/12/1/1/1/0016,Nigeria,NGA,Katsina,Dutsin-Ma,0,Kutawa,0,Garhi Millennium Development Goals Clinic,NHFR_2024,Public,Local Government,Primary,Primary Health Center,12.376285,7.459001667,GRID3_EHEALTH,2024-11-11,7.45900166700005,12.376285
26,36d4417d-4e7a-4a9a-aedb-a6c89fd09ae2,12920381,20/21/1/1/1/0034,Nigeria,NGA,Katsina,Katsina,0,Gabas 1,0,Kofar Durbi Health Clinic,NHFR_2024,Public,Local Government,Primary,Health Post,12.99929833,7.615775,GRID3_EHEALTH,2024-11-11,7.61577500000004,12.9992983300001
27,26a54aea-00e3-4f53-baa6-6987c584ddcd,39157772,20/20/1/1/1/0049,Nigeria,NGA,Katsina,Kankia,0,Gyaza/Kunduru,0,Badole Health Clinic,NHFR_2024,Public,Local Government,Primary,Primary Health Center,12.36859333,7.66515,GRID3_EHEALTH,2024-11-11,7.66515000000004,12.3685933300001
28,662764ca-5b96-4292-90fb-701b97f367d3,84441061,20/21/1/1/1/0018,Nigeria,NGA,Katsina,Katsina,0,Gabas 3,0,Kukar Gesa (Katsina) Health Center,NHFR_2024,Public,Local Government,Primary,Health Post,13.02066667,7.604288333,GRID3_EHEALTH,2024-11-11,7.60428833300006,13.02066667
29,48707711-bf55-4709-9179-2878be1acb38,28826239,20/14/1/1/1/0017,Nigeria,NGA,Katsina,Funtua,0,Goya,0,Dan Layi Health Post,NHFR_2024,Public,Local Government,Primary,Primary Health Clinic,11.5092323,7.3754358,GRID3_EHEALTH,2024-11-11,7.37543580000005,11.5092323000001
30,2aca1d89-2943-4798-be16-fe46a5837b95,54086885,20/14/1/1/1/0024,Nigeria,NGA,Katsina,Funtua,0,Tudun Iya,0,Gwangori Health Clinic,NHFR_2024,Public,Local Government,Primary,Primary Health Clinic,11.2706538,7.3230269,GRID3_EHEALTH,2024-11-11,7.32302690000006,11.2706538
31,e5d4198c-c6fb-42f6-99a9-cabf05f10031,59513654,20/32/1/1/1/0041,Nigeria,NGA,Katsina,Safana,0,Baure B,0,Garin Tambari Health Facility,NHFR_2024,Public,Local Government,Primary,Primary Health Clinic,12.61215167,7.211908333,GRID3_EHEALTH,2024-11-11,7.21190833300005,12.6121516700001
32,92397f6d-488e-489d-91e1-9f66cdc08425,38377052,20/14/1/1/1/0008,Nigeria,NGA,Katsina,Funtua,0,Dukke,0,Anguwar Bishi Health Clinic,NHFR_2024,Public,Local Government,Primary,Primary Health Clinic,11.56197667,7.202535,GRID3_EHEALTH,2024-11-11,7.20253500000007,11.56197667
33,cc777063-ed3f-494e-871b-9a3e0320417b,75596722,20/14/1/1/1/0002,Nigeria,NGA,Katsina,Funtua,0,Dukke,0,Anguwar Biri Health Clinic,NHFR_2024,Public,Local Government,Primary,Primary Health Clinic,11.53565667,7.21986,GRID3_EHEALTH,2024-11-11,7.21986000000004,11.53565667
34,5d082125-5f83-4946-9bed-f21496f9fed1,81166078,20/30/1/1/1/0038,Nigeria,NGA,Katsina,Rimi,0,Abukur,0,Tafirdawa Health Center,NHFR_2024,Public,Local Government,Primary,Primary Health Clinic,12.90947667,7.695903333,GRID3_EHEALTH,2024-11-11,7.69590333300005,12.9094766700001
35,4abfe80d-4860-48c0-802c-729fa10be212,78201295,20/18/1/1/1/0047,Nigeria,NGA,Katsina,Kaita,0,Yandaki,0,Maitukuri Health Clinic,NHFR_2024,Public,Local Government,Primary,Health Post,13.12368269,7.64342606,GRID3_EHEALTH,2024-11-11,7.64342606000002,13.1236826900001
36,ae9e691f-41b5-46d9-b0a0-838e655ba969,58153125,20/17/1/1/1/0058,Nigeria,NGA,Katsina,Kafur,0,Kafur,0,Yarsharu Health Clinic,NHFR_2024,Public,Local Government,Primary,Primary Health Clinic,11.67987667,7.641303333,GRID3_EHEALTH,2024-11-11,7.64130333300005,11.6798766700001
37,cfd8e57f-3e89-4e6a-b38a-39e99b4458a0,51488455,20/34/1/1/1/0032,Nigeria,NGA,Katsina,Zango,0,Rogogo,0,Unguwar Gaje Health Post,NHFR_2024,Public,Local Government,Primary,Health Post,12.93225667,8.508998333,GRID3_EHEALTH,2024-11-11,8.50899833300002,12.9322566700001
38,ab0edbc6-801a-4b34-aaaf-40a9d1e5673c,26417327,20/34/1/1/1/0021,Nigeria,NGA,Katsina,Zango,0,K/Malamai,0,Kawurin Mallamai Maternity and  Child Health Clinic,NHFR_2024,Public,Local Government,Primary,Primary Health Clinic,12.90480333,8.609651667,GRID3_EHEALTH,2024-11-11,8.60965166700004,12.90480333
39,6a7846fe-667f-4aaf-8e42-1ee4f99f2242,49187616,20/34/1/1/1/0053,Nigeria,NGA,Katsina,Zango,0,Kawarin Kudi,0,Gidila Health Clinic,NHFR_2024,Public,Local Government,Primary,Health Post,12.89175,8.644276667,GRID3_EHEALTH,2024-11-11,8.64427666700004,12.89175
40,49f48f9f-7ce3-48cd-8fc4-b77fe25a82ff,43981696,20/01/1/1/1/0058,Nigeria,NGA,Katsina,Bakori,0,Jar Gaba,0,Unguwar Dogo Health Clinic,NHFR_2024,Public,Local Government,Primary,Primary Health Clinic,11.61224833,7.399795,GRID3_EHEALTH,2024-11-11,7.39979500000004,11.6122483300001
41,60f90b53-f885-4f98-8686-e0c9e187d453,19318802,20/01/1/1/1/0069,Nigeria,NGA,Katsina,Bakori,0,Dawan Musa,0,Kwarin Danbatta Health Clinic,NHFR_2024,Public,Unknown,Primary,Primary Health Center,11.5022987,7.5823358,GRID3_EHEALTH,2024-11-11,7.58233580000007,11.5022987
42,af6b5f56-1b30-4de2-bfcf-eb9ec47c376e,72821304,20/07/1/1/1/0020,Nigeria,NGA,Katsina,Dan Musa,0,Maidabino A,0,Maidabino Primary Health Center,NHFR_2024,Public,Local Government,Primary,Primary Health Center,12.13124,7.345241667,GRID3_EHEALTH,2024-11-11,7.34524166700004,12.1312400000001
43,78ded58a-5573-4d22-bcfd-604a361aa2b5,79405009,06/07/1/1/1/0024,Nigeria,NGA,Bayelsa,Southern Ijaw,0,Olodiama 2 Ward 4,0,Ikienghenbiri Primary Health Care Center,NHFR_2024,Public,Local Government,Primary,Primary Health Center,4.717285156,5.99407959,GRID3_EHEALTH,2024-11-11,5.99407959000007,4.71728515600005
44,fa01ffcb-9a0e-4450-882d-687f5da4ffc3,28995916,20/07/1/1/1/0079,Nigeria,NGA,Katsina,Dan Musa,0,Mara B,0,Aidun Hassan Health Clinic,NHFR_2024,Public,Local Government,Primary,Primary Health Clinic,12.26881833,7.36886,GRID3_EHEALTH,2024-11-11,7.36886000000004,12.26881833
45,85025df3-a097-45e0-a830-e25a99ca0268,75488664,20/07/1/1/1/0033,Nigeria,NGA,Katsina,Dan Musa,0,Yantumaki B,0,Tashar Icce Health Clinic,NHFR_2024,Public,Local Government,Primary,Primary Health Clinic,12.24597167,7.468405,GRID3_EHEALTH,2024-11-11,7.46840500000007,12.2459716700001
46,4137869a-2d38-4a34-8450-69bc5f6a239a,56324152,28/14/1/2/2/0001,Nigeria,NGA,Ondo,Okitipupa,0,Okitipupai 1,0,Ebute Primary Health Center,NHFR_2024,Public,Local Government,Primary,Primary Health Center,6.507731,4.790268,GRID3_EHEALTH,2024-11-11,4.79026800000003,6.50773100000003
47,92dfc83a-3b2f-4b99-b858-e4acd670ffcc,38647985,22/08/1/1/2/0061,Nigeria,NGA,Kogi,Igalamela-Odolu,0,Ajaka 1,0,Precious Care Maternity,NHFR_2024,Private,For Profit,Primary,Primary Health Clinic,7.142883301,6.790100097,GRID3_EHEALTH,2024-11-11,6.79010009700005,7.14288330100004
48,b36dfa04-c0c6-4a67-bf33-b8dec2c2869c,73560128,22/12/1/1/1/0045,Nigeria,NGA,Kogi,Lokoja,0,Oworo,0,Kungbani Comprehensive Health Center,NHFR_2024,Public,Local Government,Primary,Primary Health Center,7.916870117,6.749084472,GRID3_EHEALTH,2024-11-11,6.74908447200005,7.91687011700003
49,f482340b-4f57-41da-82e8-88cedcf43fa0,71847273,22/20/1/1/1/0023,Nigeria,NGA,Kogi,Yagba East,0,Mopo 9,1,Offin Primary Health Center,NHFR_2024,Public,Local Government,Primary,Primary Health Clinic,8.263122558,5.83392334,GRID3_EHEALTH,2024-11-11,5.83392334000007,8.26312255800001
50,c045a620-4cc6-4d64-943e-d41b8167034f,69707400,20/08/1/1/1/0007,Nigeria,NGA,Katsina,Dandume,0,Dansoda,0,Dugun Sambo Health Clinic,NHFR_2024,Public,Local Government,Primary,Primary Health Clinic,11.4477691,7.084358,GRID3_EHEALTH,2024-11-11,7.08435800000007,11.4477691000001
51,1e8c341c-6d06-4d95-b79f-98ecdc035248,15948173,01/15/1/1/2/0028,Nigeria,NGA,Abia,Umuahia North,0,Urban 5,0,Uche Medicare,NHFR_2024,Private,For Profit,Secondary,Primary Health Center,5.515006667,7.49898,GRID3_EHEALTH,2024-11-11,7.49898000000007,5.51500666700004
52,73b3c095-660e-4615-9afd-ef21fad0eb13,42364687,11/03/1/2/2/0001,Nigeria,NGA,Ebonyi,Afikpo South,0,Owutu,1,Life Care Clinic,NHFR_2024,Private,For Profit,Secondary,Primary Health Center,5.817504883,7.856689453,GRID3_EHEALTH,2024-11-11,7.85668945300006,5.81750488300003
53,897fe891-4ccd-4cf7-9c3d-991bbe19a20d,78687741,24/12/1/1/2/0081,Nigeria,NGA,Lagos,Ikorodu,0,Isawo,1,Top Care Hospital,NHFR_2024,Private,Unknown,Primary,Primary Health Center,6.654296875,3.475280761,GRID3_EHEALTH,2024-11-11,3.47528076100002,6.65429687500005
54,38ca4183-adc7-4f98-b432-53db8f797739,48839003,23/14/1/2/1/0002,Nigeria,NGA,Kwara,Oke-Ero,0,Idofin Odo Ashe,1,Aiyekale Cottage Hospital,NHFR_2024,Public,Unknown,Secondary,Primary Health Center,8.219909668,5.296508789,GRID3_EHEALTH,2024-11-11,5.29650878900003,8.21990966800006
55,55229fa3-86e8-4355-b7bb-348724313c11,37531089,20/20/1/1/1/0045,Nigeria,NGA,Katsina,Kankia,0,Kafin Soli,0,Taurarin Doka Health Clinic,NHFR_2024,Public,Local Government,Primary,Primary Health Clinic,12.56936333,7.781323333,GRID3_EHEALTH,2024-11-11,7.78132333300005,12.56936333
56,a260b97b-09b7-4575-ad64-949d97752710,35227776,23/10/1/1/1/0013,Nigeria,NGA,Kwara,Isin,0,Oke Onigbin,0,Igbesi Primary Health Center,NHFR_2024,Public,Local Government,Primary,Primary Health Center,8.210876465,4.967285156,GRID3_EHEALTH,2024-11-11,4.96728515600006,8.21087646500006
57,dee75dda-083c-4462-8814-8c5fb92508a4,70591142,20/05/1/1/1/0017,Nigeria,NGA,Katsina,Bindawa,0,Doro,0,Doro Primary Health Center,NHFR_2024,Public,Unknown,Primary,Primary Health Center,12.77458,7.909786667,GRID3_EHEALTH,2024-11-11,7.90978666700005,12.7745800000001
58,3c7bafa7-fc52-42eb-8e5a-26b2fbd91748,29916869,20/30/1/1/1/0048,Nigeria,NGA,Katsina,Rimi,0,Makurda,0,Dagabawa Health Clinic,NHFR_2024,Public,Local Government,Primary,Primary Health Center,13.01496333,7.757733333,GRID3_EHEALTH,2024-11-11,7.75773333300003,13.0149633300001
59,d211d2c3-f803-4ff1-a1fe-d6253e62a9fb,84459678,20/30/1/1/1/0061,Nigeria,NGA,Katsina,Rimi,0,Makurda,0,Kurima Health Clinic,NHFR_2024,Public,Local Government,Primary,Primary Health Clinic,13.02309167,7.728061667,GRID3_EHEALTH,2024-11-11,7.72806166700008,13.02309167
60,205afd7b-d9c6-44bb-bd4f-2ab69b890a73,81186859,12/03/1/1/1/0004,Nigeria,NGA,Edo,Esan Central,0,Ugbegun/Ebudin,0,Ebudin Primary Health Center,NHFR_2024,Public,Local Government,Primary,Primary Health Clinic,6.59301,6.17495,NHFR_2024,2024-11-11,6.17495000000002,6.59301000000004
61,27bda8b8-e2e4-48b6-bcef-7149add34339,13647301,12/14/1/1/1/0028,Nigeria,NGA,Edo,Ovia North-East,0,Okokhuo,0,Okokhuo Primary Health Clinic,NHFR_2024,Public,Local Government,Primary,Primary Health Clinic,6.584305,5.603253,GRID3_EHEALTH,2024-11-11,5.60325300000005,6.58430500000004
62,80134014-76e8-445e-9302-fdf4a04e85c4,76285497,10/20/1/2/1/0001,Nigeria,NGA,Delta,Ughelli South,0,Olumo 3,1,Effurun Otor Primary Health Center,NHFR_2024,Public,Local Government,Primary,Primary Health Center,5.484313965,5.941711426,GRID3_EHEALTH,2024-11-11,5.94171142600004,5.48431396500007
63,26cd3340-c7b4-4dc5-a27d-673a64bf5696,84819975,10/11/1/1/1/0025,Nigeria,NGA,Delta,Ndokwa East,0,Onyah/Umuolu,0,Onya Comprehensive Health Center,NHFR_2024,Public,Unknown,Primary,Primary Health Center,5.332885742,6.425720215,GRID3_EHEALTH,2024-11-11,6.42572021500007,5.33288574200003
64,af9bb45d-6b9c-4cbb-901e-f8f98d8dfc7b,59798624,10/12/1/1/2/0003,Nigeria,NGA,Delta,Ndokwa West,0,Emu,0,Emu Ebendo Primary Health Care Center,NHFR_2024,Public,Local Government,Primary,Primary Health Center,5.675720215,6.357727051,GRID3_EHEALTH,2024-11-11,6.35772705100004,5.67572021500006
65,50063fcd-f76f-4c3e-8396-9db89ec94394,51727628,20/24/1/1/1/0039,Nigeria,NGA,Katsina,Mai'Adua,0,Bumbum A,0,Unguwar Yakubu Health Clinic,NHFR_2024,Public,Local Government,Primary,Primary Health Clinic,13.2569767,8.09676,GRID3_EHEALTH,2024-11-11,8.09676000000007,13.2569767000001
66,d2cda5b9-7960-4eba-9e57-4428095477bf,66055388,20/24/1/1/1/0049,Nigeria,NGA,Katsina,Mai'Adua,0,Maikomi B,0,Mallamawa Health Clinic,NHFR_2024,Public,Local Government,Primary,Primary Health Clinic,13.12618667,8.248453333,GRID3_EHEALTH,2024-11-11,8.24845333300004,13.12618667
67,b74b42ab-fce1-4165-b4cb-f4c5381b4538,15779722,20/24/1/1/1/0016,Nigeria,NGA,Katsina,Mai'Adua,0,Bumbum B,0,Kwadage Health Clinic,NHFR_2024,Public,Local Government,Primary,Primary Health Center,13.1916017,8.1468117,GRID3_EHEALTH,2024-11-11,8.14681170000006,13.1916017
68,7f460f18-2a4b-4c02-a1f1-9760b6212fb5,46643986,09/16/1/1/1/0089,Nigeria,NGA,Cross River,Ogoja,0,Nkum Ibor,0,Ating Itek Upkakada Health Post,NHFR_2024,Public,Local Government,Primary,Health Post,6.571141,8.7371958,GRID3_EHEALTH,2024-11-11,8.73719580000005,6.57114100000007
69,4c27e26d-88b6-42df-a482-63498b4a01d9,20121564,05/06/1/2/1/0001,Nigeria,NGA,Bauchi,Dass,0,Bundot,0,Dass General Hospital,NHFR_2024,Public,State Government,Secondary,General Hospital,10.00440763,9.518718117,GRID3_EHEALTH,2024-11-11,9.51871811700005,10.0044076300001
70,e36488e2-8bd5-4a49-8182-e75c9db8a5c1,86831214,05/02/1/1/1/0011,Nigeria,NGA,Bauchi,Bauchi,0,Kangere,0,Bishi Primary Health Center,NHFR_2024,Public,Local Government,Primary,Primary Health Center,10.253033,10.090899,GRID3_EHEALTH,2024-11-11,10.090899,10.2530330000001
71,cfd815d3-57b4-4a52-8e6e-36b9bcad8527,49392729,05/05/1/1/1/0050,Nigeria,NGA,Bauchi,Darazo,0,Tauya West,0,Yalwan Darazo Health Center,NHFR_2024,Public,Local Government,Primary,Primary Health Center,10.887064,10.357575,GRID3_EHEALTH,2024-11-11,10.3575750000001,10.8870640000001
72,2737194d-4715-4e1c-8119-ac6501ab03a6,50439197,05/05/1/1/1/0012,Nigeria,NGA,Bauchi,Darazo,0,Tauya East,0,Duwo Primary Health Clinic,NHFR_2024,Public,Local Government,Primary,Primary Health Clinic,10.844642,10.42787,GRID3_EHEALTH,2024-11-11,10.42787,10.844642
73,2b1881d0-b0ee-4ae6-9e39-ce9fd0d424ee,46190751,20/20/1/1/1/0042,Nigeria,NGA,Katsina,Kankia,0,Dangi Fakuwa,0,Kirkini Health Center,NHFR_2024,Public,Local Government,Primary,Primary Health Clinic,12.60913667,7.718478333,GRID3_EHEALTH,2024-11-11,7.71847833300006,12.6091366700001
74,214cdee2-bbce-4c71-9832-b1074f7c6232,25779593,15/06/1/2/1/0004,Nigeria,NGA,Gombe,Gombe,0,Shamaki,0,Gombe State University Health Clinic,NHFR_2024,Public,State Government,Secondary,Unknown,10.30688477,11.17468262,GRID3_EHEALTH,2024-11-11,11.1746826200001,10.3068847700001
75,0f29c711-4c10-4890-918a-58a39bcd0251,32266151,20/17/1/1/1/0056,Nigeria,NGA,Katsina,Kafur,0,Gozaki,0,Ilanlawa Health Clinic,NHFR_2024,Public,Local Government,Primary,Primary Health Clinic,11.41287333,7.612103333,GRID3_EHEALTH,2024-11-11,7.61210333300005,11.41287333
76,8a0eb705-96d9-4223-b9c1-37049814ee33,28182875,32/01/1/1/1/0006,Nigeria,NGA,Rivers,Abua/Odual,0,Abua/Odual 4,1,Ayama Primary Health Center,NHFR_2024,Public,State Government,Primary,Primary Health Center,4.852718333,6.650138333,GRID3_EHEALTH,2024-11-11,6.65013833300003,4.85271833300004
77,839959e4-bc11-47c5-9cfe-64e1c5a9a57b,48081034,20/25/1/1/1/0046,Nigeria,NGA,Katsina,Malumfashi,0,Karfi (Takai Lga),0,Tashar Fulani Health Clinic,NHFR_2024,Public,Local Government,Primary,Primary Health Clinic,11.706264,7.5165988,GRID3_EHEALTH,2024-11-11,7.51659880000005,11.706264
78,0aaedf16-215d-405f-844d-203b51382eac,76556305,20/25/1/1/1/0039,Nigeria,NGA,Katsina,Malumfashi,0,Karfi (Takai Lga),0,Yar Mai Dabo Health Clinic,NHFR_2024,Public,Local Government,Primary,Health Post,11.7601051,7.4408312,GRID3_EHEALTH,2024-11-11,7.44083120000005,11.7601051
79,060aa822-a94b-43e2-be8e-564e232691e5,64831056,20/25/1/1/1/0050,Nigeria,NGA,Katsina,Malumfashi,0,Yaba,0,Marmara Health Clinic,NHFR_2024,Public,Local Government,Primary,Primary Health Clinic,11.8051946,7.546048,GRID3_EHEALTH,2024-11-11,7.54604800000004,11.8051946
80,cfba2215-33a7-44a6-8957-5187c913c395,72702372,20/08/1/1/1/0051,Nigeria,NGA,Katsina,Dandume,0,Tumburka A,0,Badon Waisu Health Clinic,NHFR_2024,Public,Local Government,Primary,Primary Health Clinic,11.2931236,7.2006514,GRID3_EHEALTH,2024-11-11,7.20065140000003,11.2931236000001
81,81910e2d-bdca-423f-8c5f-496e7430bc5c,76788840,20/08/1/1/1/0055,Nigeria,NGA,Katsina,Dandume,0,Dantankari,0,Unguwar Gamba Health Clinic,NHFR_2024,Public,Local Government,Primary,Primary Health Clinic,11.43759,7.13276,GRID3_EHEALTH,2024-11-11,7.13276000000008,11.4375900000001
82,9a668e4c-84e3-4f42-9674-8ef012af48ff,60617019,20/08/1/1/1/0010,Nigeria,NGA,Katsina,Dandume,0,Maikwama,0,Illalah Primary Health Center,NHFR_2024,Public,Local Government,Primary,Primary Health Center,11.4452969,7.1918557,GRID3_EHEALTH,2024-11-11,7.19185570000008,11.4452969000001
83,878f91e1-8bc4-4042-8df5-41fde2c9ae7d,24748015,05/18/1/1/1/0037,Nigeria,NGA,Bauchi,Toro,0,Tama/Daye,1,Lau Primary Health Clinic,NHFR_2024,Public,Local Government,Primary,Primary Health Clinic,10.2361,9.00904,GRID3_EHEALTH,2024-11-11,9.00904000000003,10.2361
84,9cf3b795-c8ed-471e-90db-4495fd8c677d,46572392,20/19/1/1/1/0009,Nigeria,NGA,Katsina,Kankara,0,Zango,1,Dan Marke Health Clinic,NHFR_2024,Public,Unknown,Primary,Primary Health Center,11.92576,7.415988333,GRID3_EHEALTH,2024-11-11,7.41598833300003,11.92576
85,14c1b287-11f7-4312-ab24-0386707db81c,48496600,05/03/1/1/1/0007,Nigeria,NGA,Bauchi,Bogoro,0,Boi,0,Boi Primary Health Center,NHFR_2024,Public,Local Government,Primary,Primary Health Center,9.55456141,9.50376288,GRID3_EHEALTH,2024-11-11,9.50376288000007,9.55456141000007
86,f68241f9-0ba5-4fd0-8042-ef5d75abc994,17870757,05/03/1/1/1/0014,Nigeria,NGA,Bauchi,Bogoro,0,Lusa,0,Dunga Health Clinic,NHFR_2024,Public,Local Government,Primary,Primary Health Clinic,9.604188,9.56538,GRID3_EHEALTH,2024-11-11,9.56538000000006,9.60418800000002
87,080877e0-a086-4a21-9f32-a93a4611b7ba,13814253,05/10/1/1/1/0027,Nigeria,NGA,Bauchi,Itas/Gadau,0,Mashema,0,Mashema Primary Health Center,NHFR_2024,Public,Local Government,Primary,Primary Health Center,11.78572096,9.94369576,GRID3_EHEALTH,2024-11-11,9.94369576000003,11.7857209600001
88,6efae4b9-b095-4cd9-817f-fd2e99d7a1ec,41902409,05/02/1/1/1/0041,Nigeria,NGA,Bauchi,Bauchi,0,Makama A,0,Jahun Under Five Primary Health Care Clinic,NHFR_2024,Public,State Government,Primary,Primary Health Center,10.30236932,9.83965818,GRID3_EHEALTH,2024-11-11,9.83965818000007,10.30236932
89,74e66f54-f2cb-4047-95b3-03ca554b36b4,78077173,31/01/1/1/2/0070,Nigeria,NGA,Plateau,Barkin Ladi,0,Heipang,0,Bukata Clinic,NHFR_2024,Private,For Profit,Primary,Primary Health Center,9.687072754,8.897094727,GRID3_EHEALTH,2024-11-11,8.89709472700002,9.68707275400005
90,12326308-df89-4860-9ece-7f563ac62edd,48046754,31/01/1/1/1/0003,Nigeria,NGA,Plateau,Barkin Ladi,0,Tafan Nwok B,1,Bawan Dodo Primary Health Center,NHFR_2024,Public,Local Government,Primary,Primary Health Clinic,9.627075195,9.072082519,GRID3_EHEALTH,2024-11-11,9.07208251900005,9.62707519500003
91,6699e5ae-38a9-4c0c-9578-75d6e08380f4,32254078,23/03/1/1/1/0033,Nigeria,NGA,Kwara,Edu,0,Lafiagi 4,1,Likpata Primary Health Center,NHFR_2024,Public,Unknown,Primary,Primary Health Center,8.93857,5.46719,GRID3_EHEALTH,2024-11-11,5.46719000000007,8.93857000000002
92,1ce48801-fd60-471c-b3b3-4fb2f3913cc6,73281601,31/04/1/1/1/0042,Nigeria,NGA,Plateau,Jos East,0,Shere East,0,Shere Jankasa Primary Health Center,NHFR_2024,Public,Local Government,Primary,Primary Health Center,9.987915039,9.072875977,GRID3_EHEALTH,2024-11-11,9.07287597700002,9.98791503900003
93,ab482d6b-3350-4f84-96cf-dfd74981ff3a,68892858,31/09/1/1/1/0001,Nigeria,NGA,Plateau,Langtang North,0,Kuffen B,1,Bankun Primary Health Center,NHFR_2024,Public,Local Government,Primary,Primary Health Center,9.11088,9.8727,GRID3_EHEALTH,2024-11-11,9.87270000000007,9.11088000000006
94,0528369a-904f-43ea-936c-869b05df341e,27284822,31/09/1/1/1/0003,Nigeria,NGA,Plateau,Langtang North,0,Jat,0,Biller Primary Health Center,NHFR_2024,Public,Local Government,Primary,Health Post,9.25058,9.82638,GRID3_EHEALTH,2024-11-11,9.82638000000003,9.25058000000006
95,097d4b05-8434-498d-b598-44e82722ea78,81715165,31/09/1/1/1/0037,Nigeria,NGA,Plateau,Langtang North,0,Nyer,0,Nyer Primary Health Center,NHFR_2024,Public,Local Government,Primary,Primary Health Center,8.89388,9.80941,NHFR_2024,2024-11-11,9.80941000000007,8.89388000000002
96,f336b09d-b403-4f2a-a692-394bbecbd665,66098703,31/12/1/1/1/0028,Nigeria,NGA,Plateau,Mikang,1,Lalin,1,Putling Health Post,NHFR_2024,Public,Local Government,Primary,Health Post,9.0487,9.75835,GRID3_EHEALTH,2024-11-11,9.75835000000006,9.04870000000005
97,ef5918a5-b048-4a6b-bcf7-66adceb8a61e,27892666,31/09/1/1/1/0067,Nigeria,NGA,Plateau,Langtang North,0,Mban,0,Pyap Primary Health Center,NHFR_2024,Public,Local Government,Primary,Health Post,9.02272638,9.867459517,GRID3_EHEALTH,2024-11-11,9.86745951700004,9.02272638000006
98,7cf8181f-4af2-445f-a14e-a428ee49bc46,74564603,07/19/1/1/1/0003,Nigeria,NGA,Benue,Otukpo,0,Adoka-Icho,0,Adoka Primary Health Care Center,NHFR_2024,Public,Local Government,Primary,Primary Health Center,7.44621,7.9841,GRID3_EHEALTH,2024-11-11,7.98410000000007,7.44621000000006
99,f048b34d-55a0-42cd-8637-dd6fc6decbe8,70909074,04/10/1/1/1/0040,Nigeria,NGA,Anambra,Idemili North,0,Umuoji,0,Umuoji Primary Health Center,NHFR_2024,Public,Local Government,Primary,Primary Health Center,6.13096,6.90035,NHFR_2024,2024-11-11,6.90035000000006,6.13096000000008
100,c3620e79-5d57-474c-999b-9a98716e35ee,24585111,31/11/1/1/2/0011,Nigeria,NGA,Plateau,Mangu,0,Gindiri 1,0,Gindiri College Of Education Clinic,NHFR_2024,Public,State Government,Primary,Primary Health Center,9.575927734,9.198913575,GRID3_EHEALTH,2024-11-11,9.19891357500006,9.57592773400005
101,cfb02571-baf9-4fca-a875-c8b1eda0a4e4,66746314,31/13/1/1/1/0038,Nigeria,NGA,Plateau,Pankshin,0,Kangshu,0,Tinjim Primary Health Center,NHFR_2024,Public,Local Government,Primary,Primary Health Center,9.494600837,9.305303925,GRID3_EHEALTH,2024-11-11,9.30530392500003,9.49460083700007
102,79e668ce-08d6-4c6d-a847-7db52ce5a361,77272161,31/14/1/1/1/0055,Nigeria,NGA,Plateau,Qua'An-Pan,0,Njak-Shindai,0,Njak Primary Health Clinic,NHFR_2024,Public,Local Government,Primary,Primary Health Clinic,8.809509277,9.189086914,GRID3_EHEALTH,2024-11-11,9.18908691400003,8.80950927700007
103,9d57985a-75d0-491c-b927-adf1405202ea,76054885,31/15/1/1/1/0068,Nigeria,NGA,Plateau,Riyom,0,Ta Hoss,1,Rinyan Primary Health Care Clinic,NHFR_2024,Public,Local Government,Primary,Primary Health Clinic,9.627685547,8.8046875,GRID3_EHEALTH,2024-11-11,8.80468750000006,9.62768554700006
104,c54c0268-824a-4546-b8cf-75f2bbcd13b9,46689487,31/06/1/1/1/0028,Nigeria,NGA,Plateau,Jos South,0,Hwolshe,0,New Health Clinic and Maternity,NHFR_2024,Private,For Profit,Secondary,Primary Health Center,9.878295899,8.871276856,GRID3_EHEALTH,2024-11-11,8.87127685600007,9.87829589900001
105,4a3e37fb-31b9-4b97-ba3f-d0fcf6448463,48933757,31/05/1/1/1/0003,Nigeria,NGA,Plateau,Jos North,0,Angwan Rogo / Rimi,0,Angwan Rogo Primary Health Center,NHFR_2024,Public,Local Government,Primary,Primary Health Center,9.944519043,8.889099121,GRID3_EHEALTH,2024-11-11,8.88909912100007,9.94451904300007
106,d7160ee2-cb75-46f6-b584-f498c0e425db,53725235,31/05/1/1/2/0046,Nigeria,NGA,Plateau,Jos North,0,Naraguta B,0,Nasarawa Medical Center,NHFR_2024,Private,For Profit,Secondary,Primary Health Center,9.934692383,8.904724121,GRID3_EHEALTH,2024-11-11,8.90472412100007,9.93469238300002
107,e36ff34d-b860-4b6d-9688-1c836aecc483,42033315,20/13/1/1/1/0062,Nigeria,NGA,Katsina,Faskari,0,Tafoki,0,Kwana Doka Health Post,NHFR_2024,Public,Local Government,Primary,Health Post,11.67623833,7.272766667,GRID3_EHEALTH,2024-11-11,7.27276666700004,11.6762383300001
108,be841464-bee8-4971-9453-49d9377dda87,56866499,26/09/1/1/1/0083,Nigeria,NGA,Niger,Gurara,0,Bonu,0,Bazhi Primary Health Center,NHFR_2024,Public,Local Government,Primary,Primary Health Center,9.309100031,6.938347201,GRID3_EHEALTH,2024-11-11,6.93834720100006,9.30910003100007
109,96059981-e454-41e8-bf17-62148d9e9363,28331756,20/05/1/1/1/0072,Nigeria,NGA,Katsina,Bindawa,0,Dallaje/Faru,0,Kuma Health Clinic,NHFR_2024,Public,Local Government,Primary,Primary Health Clinic,12.67703833,7.868876667,GRID3_EHEALTH,2024-11-11,7.86887666700005,12.6770383300001
110,345504d1-b174-4551-b491-d5383a3154a8,16890507,20/21/1/1/1/0028,Nigeria,NGA,Katsina,Katsina,0,Arewa 1,0,Wakilala Arewa Health Center,NHFR_2024,Public,Local Government,Primary,Health Post,12.99544667,7.598085,GRID3_EHEALTH,2024-11-11,7.59808500000003,12.99544667
111,93e156ad-c471-4666-94e2-9329833ab0bd,83325120,05/03/1/1/1/0013,Nigeria,NGA,Bauchi,Bogoro,0,Badagari,0,Datsang Primary Health Care Center,NHFR_2024,Public,Local Government,Primary,Primary Health Center,9.59651862,9.67124433,GRID3_EHEALTH,2024-11-11,9.67124433000004,9.59651862000004
112,82e516d9-6e7a-42a7-bbd5-3803b0df1dd3,43612579,20/19/1/1/1/0005,Nigeria,NGA,Katsina,Kankara,0,Zango,0,Bakkai Health Clinic,NHFR_2024,Public,Local Government,Primary,Primary Health Clinic,11.90823667,7.281116667,GRID3_EHEALTH,2024-11-11,7.28111666700005,11.9082366700001
113,81598951-4a56-496a-91e8-ab3ada1068cb,12968810,05/05/1/1/1/0052,Nigeria,NGA,Bauchi,Darazo,0,Yautare,0,Yautare Primary Health Center,NHFR_2024,Public,Local Government,Primary,Primary Health Center,10.84263167,10.58110067,GRID3_EHEALTH,2024-11-11,10.5811006700001,10.8426316700001
114,84d0e649-c62b-4fc9-a5bd-026266a39b5d,59868015,20/19/1/1/1/0003,Nigeria,NGA,Katsina,Kankara,0,Zango,0,Yarsanta Health Clinic,NHFR_2024,Public,Local Government,Primary,Primary Health Clinic,12.04851833,7.275371667,GRID3_EHEALTH,2024-11-11,7.27537166700006,12.04851833
115,3b3881cd-7206-4ad4-875a-41a10839aa47,52864461,20/14/1/1/1/0047,Nigeria,NGA,Katsina,Funtua,0,Dukke,0,Zamfarawa Health Clinic,NHFR_2024,Public,Local Government,Primary,Primary Health Clinic,11.584005,7.18472,GRID3_EHEALTH,2024-11-11,7.18472000000003,11.584005
116,ed25928b-f78d-4157-91ff-ce53657950d1,15680016,05/03/1/1/1/0018,Nigeria,NGA,Bauchi,Bogoro,0,Gobbiya,0,Gobbiya Model Primary Health Care,NHFR_2024,Public,Local Government,Primary,Primary Health Center,9.63891945,9.71112321,GRID3_EHEALTH,2024-11-11,9.71112321000004,9.63891945000007
117,aab3fbf2-4503-46e0-8132-ccadc5854788,14705587,05/05/1/1/1/0014,Nigeria,NGA,Bauchi,Darazo,0,Konkiyel,0,Gakulan Audi Primary Health Center,NHFR_2024,Public,Local Government,Primary,Primary Health Center,11.1275964,10.51222607,GRID3_EHEALTH,2024-11-11,10.5122260700001,11.1275964000001
118,56c0bc8b-1ec4-49b4-b002-bc183bb737ad,66546630,05/05/1/1/1/0035,Nigeria,NGA,Bauchi,Darazo,0,Lanzai East,0,Lanzai Primary Health Center,NHFR_2024,Public,Local Government,Primary,Primary Health Center,11.42963658,10.80341916,GRID3_EHEALTH,2024-11-11,10.80341916,11.42963658
119,53719314-55a9-4437-9f42-cfcd2f76bc0d,28786926,05/02/1/1/1/0019,Nigeria,NGA,Bauchi,Bauchi,0,Tirwun,1,Dumi Primary Health Center,NHFR_2024,Public,Local Government,Primary,Primary Health Center,10.28254,9.87139,NHFR_2024,2024-11-11,9.87139000000008,10.28254
120,9f0eb9e4-7db5-43cd-9ef7-df71631af799,44738021,20/14/1/1/1/0051,Nigeria,NGA,Katsina,Funtua,0,Dukke,0,Anguwar Tanko Health Post,NHFR_2024,Public,Local Government,Primary,Primary Health Center,11.51713,7.2079,GRID3_EHEALTH,2024-11-11,7.20790000000005,11.5171300000001
121,7a1be03e-1edc-489b-8146-413a75d92247,23421563,15/02/1/1/1/0035,Nigeria,NGA,Gombe,Balanga,0,Nyuwar,0,Nyuwar Primary Health Center,NHFR_2024,Public,Local Government,Primary,Primary Health Center,9.765686035,11.75030518,GRID3_EHEALTH,2024-11-11,11.7503051800001,9.76568603500004
122,d958770e-e6b3-4ace-ae07-68fff644033c,22818313,31/05/1/1/1/0020,Nigeria,NGA,Plateau,Jos North,0,Mazah,0,Mazah Primary Health Center,NHFR_2024,Public,Local Government,Primary,Primary Health Center,9.962524414,8.934082031,GRID3_EHEALTH,2024-11-11,8.93408203100006,9.96252441400003
123,31a088dc-4bfb-4ca0-8c95-0e6123ad8d5d,84865870,20/14/1/1/1/0027,Nigeria,NGA,Katsina,Funtua,0,Dukke,0,Kufan Tsamiya Health Post,NHFR_2024,Public,Local Government,Primary,Primary Health Clinic,11.47434833,7.240156667,GRID3_EHEALTH,2024-11-11,7.24015666700006,11.47434833
124,3ec957ea-115f-4648-ad21-c07811b79ab0,55302572,20/18/1/1/1/0046,Nigeria,NGA,Katsina,Kaita,0,Dankama,0,Moda Dogari Health Clinic,NHFR_2024,Public,Local Government,Primary,Health Post,13.23702833,7.759711667,GRID3_EHEALTH,2024-11-11,7.75971166700003,13.23702833
125,eea19187-bc52-438d-9fbc-e16e7fb46ed9,19182321,20/34/1/1/1/0057,Nigeria,NGA,Katsina,Zango,0,Dargage,0,Yandaka Health Post,NHFR_2024,Public,Local Government,Primary,Health Post,13.000815,8.449306667,GRID3_EHEALTH,2024-11-11,8.44930666700003,13.000815
126,ec35da6b-fa31-46f2-83b6-922d8b0ef7de,75289795,20/30/1/1/1/0058,Nigeria,NGA,Katsina,Rimi,0,Tsagero,0,Yar Bakabiya Health Center,NHFR_2024,Public,Local Government,Primary,Primary Health Center,12.89629833,7.76858,GRID3_EHEALTH,2024-11-11,7.76858000000004,12.89629833
127,c90f24a0-217a-42a0-a9d2-6502df70d1a1,32126288,20/30/1/1/1/0051,Nigeria,NGA,Katsina,Rimi,0,Tsagero,1,Kadaji Health Center,NHFR_2024,Public,Local Government,Primary,Primary Health Center,12.9311,7.765743333,GRID3_EHEALTH,2024-11-11,7.76574333300005,12.9311000000001
128,124fbb2c-1fe5-4ba9-8c7b-8126058ec014,41172679,20/03/1/1/1/0068,Nigeria,NGA,Katsina,Batsari,0,Rumah,0,Yar Larba Health Clinic,NHFR_2024,Public,Unknown,Primary,Primary Health Center,12.85423,7.20088,GRID3_EHEALTH,2024-11-11,7.20088000000004,12.85423
129,3485fb4d-55d7-4504-b30c-f8d142a3aec1,69341470,20/13/1/1/1/0038,Nigeria,NGA,Katsina,Faskari,0,Tafoki,0,Tafoki Primary Health Center,NHFR_2024,Public,Local Government,Primary,Primary Health Clinic,11.63135833,7.280388333,GRID3_EHEALTH,2024-11-11,7.28038833300008,11.6313583300001
130,f707ef38-4582-4c4e-bc0e-82e417d16c14,63894534,20/08/1/1/1/0027,Nigeria,NGA,Katsina,Dandume,0,Maikwama,0,Nasarawa (Dandume) Health Clinic,NHFR_2024,Public,Local Government,Primary,Primary Health Clinic,11.4646858,7.1478818,GRID3_EHEALTH,2024-11-11,7.14788180000005,11.4646858
131,705b1864-53ae-4fd9-aa93-9be6666c6de7,45391493,20/18/1/1/1/0036,Nigeria,NGA,Katsina,Kaita,0,Ba'Awa,1,Sabon Birni Health Center,NHFR_2024,Public,Local Government,Primary,Health Post,13.20522667,7.922408333,GRID3_EHEALTH,2024-11-11,7.92240833300002,13.20522667
132,e076cce6-ff2a-43dd-aee6-448ac4334cdb,56437673,20/08/1/1/1/0031,Nigeria,NGA,Katsina,Dandume,0,Mahuta B,0,Unguwar Alkasim Health Center,NHFR_2024,Public,Local Government,Primary,Primary Health Clinic,11.4857509,7.252016,GRID3_EHEALTH,2024-11-11,7.25201600000003,11.4857509
133,55f790e2-b902-471a-b153-36ce54d34de7,42515000,20/08/1/1/1/0015,Nigeria,NGA,Katsina,Dandume,0,Tumburka B,0,Kauran Alasan Primary Health Center,NHFR_2024,Public,Local Government,Primary,Primary Health Center,11.2947077,7.2809717,GRID3_EHEALTH,2024-11-11,7.28097170000007,11.2947077000001
134,dcfdcf96-a747-4c06-9a6a-bb4ae908c8e7,13979478,20/17/1/1/2/0001,Nigeria,NGA,Katsina,Kafur,0,Dutsen Kura,0,Kanya Health Clinic,NHFR_2024,Public,Local Government,Primary,Primary Health Clinic,11.47991,7.63236,GRID3_EHEALTH,2024-11-11,7.63236000000006,11.4799100000001
135,9dbfa80c-7106-43da-95f5-ee6098b0bc55,78771999,20/10/1/1/1/0024,Nigeria,NGA,Katsina,Daura,0,Uban Dawaki B,1,Bariki Health Post,NHFR_2024,Public,Local Government,Primary,Health Post,13.0424983,8.3155683,GRID3_EHEALTH,2024-11-11,8.31556830000005,13.0424983
136,a425d36e-853c-44bd-8ec3-37b57c583831,58074741,20/25/1/1/1/0051,Nigeria,NGA,Katsina,Malumfashi,0,Yammama,0,Gidan Baba Health Clinic,NHFR_2024,Public,Local Government,Primary,Primary Health Clinic,11.8318717,7.675586,GRID3_EHEALTH,2024-11-11,7.67558600000007,11.8318717
137,4bdf25ed-df8d-471b-8b63-db08fe9d1a6d,32965279,20/10/1/1/1/0015,Nigeria,NGA,Katsina,Daura,0,Sakin Yara A,0,Urban Health Clinic,NHFR_2024,Public,Local Government,Primary,Primary Health Clinic,13.035435,8.316195,GRID3_EHEALTH,2024-11-11,8.31619500000005,13.0354350000001
138,e4a2f4d4-277e-4af4-8ce3-b2b462b73693,60978649,20/08/1/1/1/0018,Nigeria,NGA,Katsina,Dandume,0,Dandume B,0,Kandamba Health Clinic,NHFR_2024,Public,Local Government,Primary,Primary Health Clinic,11.5231753,7.1162888,GRID3_EHEALTH,2024-11-11,7.11628880000006,11.5231753
139,b33e39e1-e74e-48d5-b372-c2576034d78d,37955946,20/10/1/1/1/0022,Nigeria,NGA,Katsina,Daura,0,Sabongari,1,Kanyar Badala Health Post,NHFR_2024,Public,Local Government,Primary,Health Post,13.0296833,8.3249917,GRID3_EHEALTH,2024-11-11,8.32499170000006,13.0296833
140,16ff4550-ba27-4323-b513-ea767aff67fb,31477477,20/10/1/1/1/0018,Nigeria,NGA,Katsina,Daura,0,Uban Dawaki A,1,Rahamawa Health Post,NHFR_2024,Public,Local Government,Primary,Health Post,13.0457867,8.321405,GRID3_EHEALTH,2024-11-11,8.32140500000003,13.0457867000001
141,3a61edba-b4a9-4e7a-b5fa-df20d9a2c6f0,51470607,20/21/1/1/1/0036,Nigeria,NGA,Katsina,Katsina,0,Kudu 3,1,Tudun Matawalle Health Clinic,NHFR_2024,Public,Local Government,Primary,Health Post,12.96444,7.605551667,GRID3_EHEALTH,2024-11-11,7.60555166700004,12.96444
142,cab5ab47-f907-481b-867e-301c87141aa7,81402486,20/24/1/1/1/0054,Nigeria,NGA,Katsina,Mai'Adua,0,Mai'Aduwa C,0,Insharuwa Health Clinic,NHFR_2024,Public,Local Government,Primary,Primary Health Center,13.1833417,8.2063183,GRID3_EHEALTH,2024-11-11,8.20631830000002,13.1833417
143,edc21c7d-5086-493b-af41-5a29b56c54ed,74152121,35/12/1/1/1/0038,Nigeria,NGA,Yobe,Nangere,0,Nangere,0,Sabon Gari Primary Health Care,NHFR_2024,Public,Local Government,Primary,Primary Health Center,11.84909333,11.07471333,GRID3_EHEALTH,2024-11-11,11.0747133300001,11.8490933300001
144,e8c662f6-5cc5-442a-9906-9e97267ff70c,69588207,20/06/1/1/1/0018,Nigeria,NGA,Katsina,Charanchi,0,Kuraye,0,Dagora Health Center,NHFR_2024,Public,Local Government,Primary,Primary Health Center,12.702325,7.65094,GRID3_EHEALTH,2024-11-11,7.65094000000005,12.702325
145,961e672f-3756-4c42-923c-5b2d0bc2ba6e,55256071,20/24/1/1/1/0036,Nigeria,NGA,Katsina,Mai'Adua,0,Mai Adua A,0,Gegime Health Clinic,NHFR_2024,Public,Local Government,Primary,Primary Health Center,13.176755,8.227405,GRID3_EHEALTH,2024-11-11,8.22740500000003,13.1767550000001
146,c6d5d4a6-40e0-4430-9353-18bc01323a60,33982587,37/02/1/1/1/0032,Nigeria,NGA,Fct,Bwari,0,Usuma,0,Owner Occupier Primary Health Center,NHFR_2024,Public,State Government,Primary,Primary Health Center,9.1378664,7.36036,GRID3_EHEALTH,2024-11-11,7.36036000000007,9.13786640000006
147,2828d7bb-2ea5-4347-b506-bf9bdd7b8bdb,65895650,20/08/1/1/1/0022,Nigeria,NGA,Katsina,Dandume,0,Maikwama,0,Madobi Health Clinic,NHFR_2024,Public,Local Government,Primary,Primary Health Clinic,11.4713464,7.2239977,GRID3_EHEALTH,2024-11-11,7.22399770000004,11.4713464000001
148,5f4dfa2c-d273-4ec0-aa97-fdff1b814e56,86847276,16/22/1/1/1/0014,Nigeria,NGA,Imo,Orsu,1,Ebenator Ward 18,1,Amazu Health Clinic,NHFR_2024,Public,Local Government,Primary,Primary Health Clinic,5.79107666,6.977294922,GRID3_EHEALTH,2024-11-11,6.97729492200005,5.79107666000003
149,2d748134-4d36-495f-89c4-5864c97eac51,13734708,20/09/1/1/1/0017,Nigeria,NGA,Katsina,Danja,0,Tsangamawa,0,Unguwar Abdu Kanti Health Clinic,NHFR_2024,Public,Local Government,Primary,Primary Health Clinic,11.36242333,7.52453,GRID3_EHEALTH,2024-11-11,7.52453000000003,11.3624233300001
150,7ca9fcd3-a92d-443e-b1ae-3dff94b1158e,20813577,20/19/1/1/1/0053,Nigeria,NGA,Katsina,Kafur,0,Rugoji,0,Dayawa Health Clinic,NHFR_2024,Public,Local Government,Primary,Primary Health Clinic,11.71639167,7.683756667,GRID3_EHEALTH,2024-11-11,7.68375666700007,11.7163916700001
151,ebedc02c-64f3-48c3-86d0-83b525a010e1,22817110,37/06/1/1/1/0336,Nigeria,NGA,Fct,Abuja Municipal Area Council,0,Kabusa,0,Galadimawa Health Clinic,NHFR_2024,Public,Local Government,Primary,Primary Health Clinic,8.9921167,7.4259867,GRID3_EHEALTH,2024-11-11,7.42598670000007,8.99211670000006
152,8caabf09-dc7f-4bb7-9263-54c2a61f637b,87392570,13/13/1/1/2/0027,Nigeria,NGA,Ekiti,Irepodun/Ifelodun,0,Awo,0,Royal Care Clinic,NHFR_2024,Private,For Profit,Primary,Primary Health Center,7.71210833333,5.15098833333,GRID3_EHEALTH,2024-11-11,5.15098833300004,7.71210833300006
153,f917d0a1-5c2e-4ac3-8894-239668026c4d,67005003,37/06/1/1/1/0002,Nigeria,NGA,Fct,Abuja Municipal Area Council,0,Gui,1,Abuja Apo Clinic,NHFR_2024,Public,State Government,Primary,Primary Health Center,9.0766981,7.4772066,GRID3_EHEALTH,2024-11-11,7.47720660000005,9.07669810000004
154,e0baa86a-de96-46e4-9056-8b8abe81682d,66485163,37/06/1/1/1/0336,Nigeria,NGA,Fct,Abuja Municipal Area Council,0,Garki,0,Kobi Primary Health Clinic,NHFR_2024,Public,Local Government,Primary,Primary Health Clinic,8.9992791,7.5241246,GRID3_EHEALTH,2024-11-11,7.52412460000005,8.99927910000002
155,b3a37e7b-ba71-4a0e-b805-8f94421a33f0,71646659,20/01/1/1/1/0069,Nigeria,NGA,Katsina,Bakori,0,Kakumi,0,Macikaya Health Clinic,NHFR_2024,Public,Unknown,Primary,Primary Health Center,11.79377167,7.346606667,GRID3_EHEALTH,2024-11-11,7.34660666700006,11.7937716700001
156,db537db6-64d9-425c-ade1-2ca84cea456a,83085608,20/13/1/1/1/0013,Nigeria,NGA,Katsina,Faskari,0,Faskari,0,Faskari Comprehensive Health Center,NHFR_2024,Public,Local Government,Primary,Primary Health Center,11.7246904,7.0315145,GRID3_EHEALTH,2024-11-11,7.03151450000007,11.7246904
157,9280cfc6-a9f2-4f20-9ea5-3995294ee407,64339413,20/14/1/1/1/0042,Nigeria,NGA,Katsina,Funtua,0,Makera - Funtua,0,Unguwar Dahiru Health Clinic,NHFR_2024,Public,Local Government,Primary,Primary Health Clinic,11.55290667,7.289705,GRID3_EHEALTH,2024-11-11,7.28970500000003,11.55290667
158,aaacd9f1-14b9-4b72-86f5-89e3e9f8cc19,40366857,20/14/1/1/1/0016,Nigeria,NGA,Katsina,Funtua,0,Makera - Funtua,0,Danfili Health Clinic,NHFR_2024,Public,Local Government,Primary,Primary Health Clinic,11.51216667,7.270276667,GRID3_EHEALTH,2024-11-11,7.27027666700008,11.5121666700001
159,b1a5adb1-b12b-4d1d-8d63-37a119b4ea1c,46735267,20/18/1/1/1/0051,Nigeria,NGA,Katsina,Kaita,0,Girka,0,Ungwura Jibo Health Clinic,NHFR_2024,Public,Local Government,Primary,Health Post,13.13058708,7.77271107,GRID3_EHEALTH,2024-11-11,7.77271107000007,13.13058708
160,553e1c89-46c8-4f5d-b19a-70c423da6e1f,22720356,20/13/1/1/1/0048,Nigeria,NGA,Katsina,Faskari,0,Sabon Layi,0,Unguwar Sakkai Health Clinic,NHFR_2024,Public,Local Government,Primary,Health Post,11.6691249,7.0330361,GRID3_EHEALTH,2024-11-11,7.03303610000006,11.6691249
161,46de7307-a588-4cac-924c-2e98d8ae5566,25167464,20/13/1/1/1/0032,Nigeria,NGA,Katsina,Faskari,0,Sheme,0,Nasarawa Health Clinic,NHFR_2024,Public,Local Government,Primary,Health Post,11.641043,7.0996489,GRID3_EHEALTH,2024-11-11,7.09964890000003,11.641043
162,a1011335-eb5d-4397-bfaa-728eba7089d0,65360652,20/25/1/1/1/0017,Nigeria,NGA,Katsina,Malumfashi,0,Makaurachi,0,Jakwalawa Health Clinic,NHFR_2024,Public,Local Government,Primary,Primary Health Clinic,11.8784846,7.8303483,GRID3_EHEALTH,2024-11-11,7.83034830000003,11.8784846
163,322906c0-e17a-4a6a-91d3-30b6c945fe28,28498407,20/25/1/1/2/0006,Nigeria,NGA,Katsina,Malumfashi,0,Malumfashi B,0,Tsamiyar Dukumi Health Clinic,NHFR_2024,Public,Local Government,Primary,Primary Health Clinic,11.8047631,7.5832324,GRID3_EHEALTH,2024-11-11,7.58323240000004,11.8047631000001
164,15f86d36-d9f3-4caa-8295-ba22658b4b47,51549732,20/25/1/1/1/0047,Nigeria,NGA,Katsina,Malumfashi,0,Makaurachi,0,Tudun Kudi Primary Health Center,NHFR_2024,Public,Local Government,Primary,Primary Health Clinic,11.8378241,7.8005094,GRID3_EHEALTH,2024-11-11,7.80050940000007,11.8378241
165,362c3df0-46ad-4d6d-aca4-e83474963aa6,84379211,20/25/1/1/1/0045,Nigeria,NGA,Katsina,Malumfashi,0,Gora Dansaka,0,Unguwar Hudi Health Clinic,NHFR_2024,Public,Local Government,Primary,Health Post,11.899945,7.8137967,GRID3_EHEALTH,2024-11-11,7.81379670000007,11.8999450000001
166,d3e413d6-53e6-49d6-b197-8f91c69b4a2e,47191417,20/20/1/1/1/0039,Nigeria,NGA,Katsina,Kankia,0,Tafashiya Nasarawa,0,Butta Health Clinic,NHFR_2024,Public,Local Government,Primary,Primary Health Clinic,12.45904167,7.8038,GRID3_EHEALTH,2024-11-11,7.80380000000002,12.45904167
167,56dd4f64-745c-412f-b0e3-a2c279f244a4,49074463,20/09/1/1/1/0051,Nigeria,NGA,Katsina,Danja,0,Danja A,0,Unguwar Nuhu Health,NHFR_2024,Public,Local Government,Primary,Primary Health Clinic,11.42289667,7.524568333,GRID3_EHEALTH,2024-11-11,7.52456833300005,11.4228966700001
168,3edf22fd-1e02-4e92-86d0-e912ca951337,27674259,20/31/1/1/1/0041,Nigeria,NGA,Katsina,Sabuwa,0,Maibakko,0,Yanlagwada Health Clinic,NHFR_2024,Public,Local Government,Primary,Primary Health Clinic,11.230365,7.142571667,GRID3_EHEALTH,2024-11-11,7.14257166700003,11.2303650000001
169,d59f0514-3afc-4292-9fa0-62209989b769,64066677,20/31/1/1/1/0038,Nigeria,NGA,Katsina,Sabuwa,0,Maibakko,0,Unguwar Sani Health Clinic,NHFR_2024,Public,Local Government,Primary,Primary Health Clinic,11.25672667,7.158958333,GRID3_EHEALTH,2024-11-11,7.15895833300004,11.25672667
170,64a0238e-4481-4dba-9176-1e64cbe56820,73598111,20/28/1/1/1/0042,Nigeria,NGA,Katsina,Matazu,0,Dissi,0,Rinjin Gora Health Clinic,NHFR_2024,Public,Local Government,Primary,Primary Health Clinic,12.17313,7.68939,GRID3_EHEALTH,2024-11-11,7.68939000000006,12.1731300000001
171,bd4777e8-8127-44a4-a935-18c80543d8df,76744058,20/28/1/1/1/0038,Nigeria,NGA,Katsina,Matazu,0,Dissi,0,Gidan Alh Lawal Health Clinic,NHFR_2024,Public,Local Government,Primary,Primary Health Clinic,12.18338,7.70453,GRID3_EHEALTH,2024-11-11,7.70453000000003,12.18338
172,288527cc-7b1b-4c7a-8048-db56476b4bb6,38824035,20/28/1/1/1/0050,Nigeria,NGA,Katsina,Matazu,0,Kogari,0,Gurgu Health Clinic,NHFR_2024,Public,Local Government,Primary,Primary Health Clinic,12.23926333,7.725056667,GRID3_EHEALTH,2024-11-11,7.72505666700005,12.23926333
173,b5f9b8b1-af49-4027-a4b5-5ed482d00db8,84571323,20/28/1/1/1/0041,Nigeria,NGA,Katsina,Matazu,0,Kogari,0,Kachari Health Clinic,NHFR_2024,Public,Local Government,Primary,Primary Health Clinic,12.23729833,7.753561667,GRID3_EHEALTH,2024-11-11,7.75356166700004,12.23729833
174,a0b53490-b3a5-4a26-a871-0fd22c442b9c,13781010,20/28/1/1/1/0043,Nigeria,NGA,Katsina,Matazu,0,Matazu B,0,Sabuwar Dabawa Health Clinic,NHFR_2024,Public,Local Government,Primary,Primary Health Clinic,12.286335,7.681183333,GRID3_EHEALTH,2024-11-11,7.68118333300004,12.2863350000001
175,614f21c7-0617-4a46-a41e-301863ed7602,85966447,20/08/1/1/1/0002,Nigeria,NGA,Katsina,Dandume,0,Tumburka B,0,Barkan Health Clinic,NHFR_2024,Public,Local Government,Primary,Primary Health Clinic,11.3414166,7.2678666,GRID3_EHEALTH,2024-11-11,7.26786660000005,11.3414166000001
176,cafc47c6-33d2-42ac-af67-9f463796732b,17047696,20/07/1/1/1/0012,Nigeria,NGA,Katsina,Dan Musa,0,Yantumaki A,0,Fafawa Health Post,NHFR_2024,Public,Unknown,Primary,Primary Health Center,12.2632973,7.531427,GRID3_EHEALTH,2024-11-11,7.53142700000006,12.2632973
177,2a1251a0-7984-4115-9f12-beb92ab79f64,74460018,20/07/1/1/1/0084,Nigeria,NGA,Katsina,Dan Musa,0,Yantumaki A,0,Kwarare Health Clinic,NHFR_2024,Public,Local Government,Primary,Health Post,12.2483005,7.5284985,GRID3_EHEALTH,2024-11-11,7.52849850000007,12.2483005
178,9df070b5-37fb-449b-bbaf-668a953c4bdd,79131245,20/04/1/1/1/0010,Nigeria,NGA,Katsina,Baure,0,Babban Mutum,0,Daje Health Clinic,NHFR_2024,Public,Local Government,Primary,Primary Health Clinic,12.8218948,9.0336577,GRID3_EHEALTH,2024-11-11,9.03365770000005,12.8218948
179,028d9dde-1f6e-4bb6-a1dc-5a9c4bea05a3,74656086,20/04/1/1/1/0051,Nigeria,NGA,Katsina,Baure,0,Yan Maulu,0,Dole Health Clinic,NHFR_2024,Public,Local Government,Primary,Primary Health Clinic,12.759959,8.8860073,GRID3_EHEALTH,2024-11-11,8.88600730000007,12.759959
180,01dee12f-18a1-4d90-a723-a9fd7abaf621,21169556,20/04/1/1/1/0047,Nigeria,NGA,Katsina,Baure,0,Yan Maulu,0,Unguwar Fari Health Clinic,NHFR_2024,Public,Local Government,Primary,Primary Health Clinic,12.7102532,8.9205647,GRID3_EHEALTH,2024-11-11,8.92056470000006,12.7102532000001
181,0c8376cd-281c-4a04-b8b9-af845929d0e9,63022349,20/04/1/1/1/0045,Nigeria,NGA,Katsina,Baure,0,Taraminawa Ward,0,Bare Health Clinic,NHFR_2024,Public,Local Government,Primary,Primary Health Clinic,12.7972234,8.9249978,GRID3_EHEALTH,2024-11-11,8.92499780000003,12.7972234000001
182,9904c700-901b-47ce-bef5-affba4711745,77523729,20/04/1/1/1/0039,Nigeria,NGA,Katsina,Baure,0,Unguwar Rai,0,Yantsai Health Clinic,NHFR_2024,Public,Local Government,Primary,Primary Health Clinic,12.7388502,8.8346308,GRID3_EHEALTH,2024-11-11,8.83463080000007,12.7388502
183,0a789ffd-0098-4c72-bbcf-c3e9802bc959,40569658,20/12/1/1/1/0029,Nigeria,NGA,Katsina,Dutsin-Ma,0,Karofi A,0,Rayi (Dutsin Ma) Health Clinic,NHFR_2024,Public,Local Government,Primary,Primary Health Clinic,12.43277167,7.55224,GRID3_EHEALTH,2024-11-11,7.55224000000004,12.43277167
184,9a58b589-d7ad-4fba-aeb2-34dc86a7c91a,65655330,20/12/1/1/1/0001,Nigeria,NGA,Katsina,Dutsin-Ma,0,Kutawa,0,Badole (Dutsin Ma) Health Clinic,NHFR_2024,Public,Local Government,Primary,Primary Health Clinic,12.394185,7.444918333,GRID3_EHEALTH,2024-11-11,7.44491833300003,12.3941850000001
185,f3208a1a-42af-45f2-b445-9c9dc943c7df,21874155,20/12/1/1/1/0026,Nigeria,NGA,Katsina,Dutsin-Ma,0,Dabawa,0,Matsani Primary Health Center,NHFR_2024,Public,Local Government,Primary,Primary Health Center,12.47893833,7.446993333,GRID3_EHEALTH,2024-11-11,7.44699333300002,12.4789383300001
186,0e3a05ba-bf2a-4d1a-b6d3-3a0a28474d62,59939253,20/15/1/1/1/0046,Nigeria,NGA,Katsina,Ingawa,0,Yandoma,0,Yandoma Comprehensive Health Center,NHFR_2024,Public,Local Government,Primary,Primary Health Center,12.7371939,8.0800267,GRID3_EHEALTH,2024-11-11,8.08002670000008,12.7371939
187,359cda60-d96a-493e-83d7-7c00f4a8fb3b,77359879,20/08/1/1/1/0049,Nigeria,NGA,Katsina,Dandume,0,Mahuta C,0,Mai Tsats Tsaka Health Clinic,NHFR_2024,Public,Local Government,Primary,Primary Health Center,11.4597882,7.2918429,GRID3_EHEALTH,2024-11-11,7.29184290000006,11.4597882
188,cc033c20-fbbe-4b00-a24d-0c94575116f7,38148813,20/01/1/1/1/0005,Nigeria,NGA,Katsina,Bakori,0,Tsiga,0,Babban Kofai Health Clinic,NHFR_2024,Public,Unknown,Primary,Primary Health Center,11.6457257,7.5252046,GRID3_EHEALTH,2024-11-11,7.52520460000005,11.6457257000001
189,754a75f3-f9d0-49eb-99c8-88425b818f5d,44479675,20/23/1/1/1/0044,Nigeria,NGA,Katsina,Kusada,0,Kofa,0,Kyafau Health Clinic,NHFR_2024,Public,Local Government,Primary,Health Post,12.4587572,7.8620682,GRID3_EHEALTH,2024-11-11,7.86206820000007,12.4587572
190,43d28c3f-64da-44df-8a33-206aa10cf200,44014565,20/29/1/1/1/0062,Nigeria,NGA,Katsina,Musawa,0,Musawa,0,Tsarika Health Clinic,NHFR_2024,Public,Local Government,Primary,Primary Health Clinic,12.06634124,7.6583879,GRID3_EHEALTH,2024-11-11,7.65838790000004,12.06634124
191,d5234e40-1bfa-4920-a6a6-41d0625267b4,33021051,20/29/1/1/1/0038,Nigeria,NGA,Katsina,Musawa,0,Kurkujan B,0,Mararraban Musawa Health Clinic,NHFR_2024,Public,Local Government,Primary,Primary Health Center,12.11091247,7.74119657,GRID3_EHEALTH,2024-11-11,7.74119657000006,12.1109124700001
192,6232df69-18e1-4335-9af2-442f377abf1d,76250068,20/29/1/1/1/0049,Nigeria,NGA,Katsina,Musawa,0,Tuge,0,Tsabe Health Clinic,NHFR_2024,Public,Local Government,Primary,Primary Health Center,12.00237356,7.58279931,GRID3_EHEALTH,2024-11-11,7.58279931000004,12.00237356
193,443b818d-159d-492c-bf01-707533b5663e,17615553,20/23/1/1/1/0023,Nigeria,NGA,Katsina,Kusada,0,Dudunni,0,Makadawa Health Clinic,NHFR_2024,Public,Local Government,Primary,Health Post,12.5873952,7.9532007,GRID3_EHEALTH,2024-11-11,7.95320070000002,12.5873952000001
194,2e2b1e9d-1472-496a-b7b8-8946b17b33d8,74802971,20/23/1/1/1/0038,Nigeria,NGA,Katsina,Kusada,0,Kaikai,0,Keba Health Center,NHFR_2024,Public,Local Government,Primary,Health Post,12.5304649,7.9660117,GRID3_EHEALTH,2024-11-11,7.96601170000003,12.5304649
195,d4df4742-136a-420b-8fed-5b646590759f,29820435,20/23/1/1/1/0013,Nigeria,NGA,Katsina,Kusada,0,Kafarda,1,Kafarda Maternity and  Child Health Clinic,NHFR_2024,Public,Unknown,Primary,Primary Health Center,12.4324083,8.0244133,GRID3_EHEALTH,2024-11-11,8.02441330000005,12.4324083000001
196,74b2e7c8-25af-460d-8479-a68b4b7c7a0c,30265264,20/17/1/1/1/0061,Nigeria,NGA,Katsina,Kafur,0,Sabuwar Kasa,0,Dan Rimi Health Clinic,NHFR_2024,Public,Local Government,Primary,Primary Health Center,11.5754891,7.6901753,GRID3_EHEALTH,2024-11-11,7.69017530000002,11.5754891
197,e2e26ea7-2e4e-446c-93ff-7dbc94bc2996,43641044,20/17/1/1/1/0060,Nigeria,NGA,Katsina,Kafur,0,Rugoji,0,Fako Health Clinic,NHFR_2024,Public,Local Government,Primary,Primary Health Center,11.8060799,7.7030085,GRID3_EHEALTH,2024-11-11,7.70300850000007,11.8060799000001
198,8506b9d5-8ebf-4094-a940-9f0dbf55d129,51413401,05/01/1/1/1/0041,Nigeria,NGA,Bauchi,Alkaleri,0,Dan,0,Kunkar Primary Health Clinic,NHFR_2024,Public,Local Government,Primary,Primary Health Clinic,9.9241465823,10.1010991142,GRID3_EHEALTH,2024-11-11,10.101099114,9.92414658200004
199,f9c4478e-f2a8-475f-8a5a-2988b52b335e,63274308,20/17/1/1/1/0053,Nigeria,NGA,Katsina,Kafur,0,Mahuta Ward,0,Sabon Layin Suran Health Clinic,NHFR_2024,Public,Local Government,Primary,Primary Health Clinic,11.6710959,7.8168129,GRID3_EHEALTH,2024-11-11,7.81681290000006,11.6710959000001
200,edc7525d-9c10-41c7-a932-f38b2fc93d41,13349074,20/17/1/1/1/0053,Nigeria,NGA,Katsina,Kafur,0,Gozaki,0,Sani A Health Clinic,NHFR_2024,Public,Local Government,Primary,Primary Health Clinic,11.4303493,7.573652,GRID3_EHEALTH,2024-11-11,7.57365200000004,11.4303493
201,757aaca0-400e-46a2-a7a3-7369bbc724e4,56945459,20/17/1/1/1/0064,Nigeria,NGA,Katsina,Kafur,0,Gamzago,0,Yantsamiya Health Clinic,NHFR_2024,Public,Local Government,Primary,Primary Health Clinic,11.8021311,7.7280517,GRID3_EHEALTH,2024-11-11,7.72805170000004,11.8021311
202,e47fb879-a0f9-4465-8f98-4b02975dfdc8,14390668,20/28/1/1/1/0045,Nigeria,NGA,Katsina,Matazu,0,Mazoji B - Matazu,0,Bokolo Health Clinic,NHFR_2024,Public,Local Government,Primary,Primary Health Clinic,12.26794,7.58856,GRID3_EHEALTH,2024-11-11,7.58856000000003,12.2679400000001
203,8f664e0f-2d6c-4686-a124-28fad88465cb,27264591,20/02/1/1/1/0072,Nigeria,NGA,Katsina,Batagarawa,0,Barawa,0,Shibdawa Health Clinic,NHFR_2024,Public,Local Government,Primary,Primary Health Clinic,12.95196667,7.503876667,GRID3_EHEALTH,2024-11-11,7.50387666700004,12.95196667
204,8da4c9fe-a071-4e3e-a050-3350e4111e43,31894209,20/02/1/1/1/0054,Nigeria,NGA,Katsina,Batagarawa,0,Barawa,0,Shikar Gabi Health Clinic,NHFR_2024,Public,Local Government,Primary,Primary Health Clinic,12.93775167,7.48973,GRID3_EHEALTH,2024-11-11,7.48973000000007,12.9377516700001
205,0781e51c-f1b1-42db-80fe-8465e3605cae,70237893,20/02/1/1/1/0040,Nigeria,NGA,Katsina,Batagarawa,0,Bakiyawa,0,Kwaina Health Clinic,NHFR_2024,Public,Local Government,Primary,Primary Health Clinic,12.86273333,7.442746667,GRID3_EHEALTH,2024-11-11,7.44274666700005,12.86273333
206,48095714-9f8b-4dc3-9c34-e14d5f2bfa0c,15913710,20/31/1/1/2/0057,Nigeria,NGA,Katsina,Sabuwa,0,Sabuwa A,0,Maryam Humaira Clinic,NHFR_2024,Private,For Profit,Primary,Primary Health Clinic,11.176225,7.1272267,GRID3_EHEALTH,2024-11-11,7.12722670000005,11.1762250000001
207,1fce6dab-da21-42ee-b75d-4fa7a2d0af72,68678748,20/21/1/1/1/0007,Nigeria,NGA,Katsina,Katsina,0,Kudu 2,0,Garama Health Clinic,NHFR_2024,Public,Local Government,Primary,Health Post,12.98241,7.610695,GRID3_EHEALTH,2024-11-11,7.61069500000002,12.9824100000001
208,b7e0c458-1932-449f-a6ba-2a7f388e054b,18431884,20/21/1/3/2/0001,Nigeria,NGA,Katsina,Katsina,0,Yamma 2,0,Katsina Federal Medical Center,NHFR_2024,Public,Federal Government,Tertiary,Specialized Hospital,12.98658,7.576791,GRID3_EHEALTH,2024-11-11,7.57679100000007,12.98658
209,47db2d6f-2fc7-4e8e-9ec3-923230e58c9c,41434324,20/07/1/1/1/0023,Nigeria,NGA,Katsina,Dan Musa,0,Mara A,0,Mara Zamfarawa Health Post,NHFR_2024,Public,Local Government,Primary,Primary Health Center,12.23642,7.26104,GRID3_EHEALTH,2024-11-11,7.26104000000004,12.2364200000001
210,6f8876a4-7d01-4716-bee1-43f7758d6780,55865880,25/07/1/1/2/0090,Nigeria,NGA,Nasarawa,Kokona,0,Kofar Gwari,0,Life  Care Kofargwari Clinic,NHFR_2024,Private,For Profit,Primary,Primary Health Clinic,8.68963545811,8.00727714747,GRID3_EHEALTH,2024-11-11,8.00727714800007,8.68963545800004
211,94869723-56a0-41da-b809-103038a3346a,48052070,37/06/1/1/2/0234,Nigeria,NGA,Fct,Abuja Municipal Area Council,0,Gwarimpa,0,Peace Care Clinic,NHFR_2024,Private,Unknown,Primary,Primary Health Center,9.09887,7.40973,GRID3_EHEALTH,2024-11-11,7.40973000000003,9.09887000000004
212,ef61cef9-ea82-4a0b-8bc6-a1d90d4fc15f,76202649,31/03/1/1/1/0074,Nigeria,NGA,Plateau,Bokkos,0,Tangur,0,Tangur Mom Primary Health Center,NHFR_2024,Public,Local Government,Primary,Primary Health Center,9.2363,9.02469,GRID3_EHEALTH,2024-11-11,9.02469000000002,9.23630000000002
213,72068fb9-892c-4f1f-9449-77402acc3b5b,32297018,31/09/1/2/1/0002,Nigeria,NGA,Plateau,Langtang North,0,Zamko,0,Zamko Comprehensive Health Center,NHFR_2024,Public,Federal Government,Secondary,Teaching/TertiaryHospita,9.004699707,9.849304199,GRID3_EHEALTH,2024-11-11,9.84930419900007,9.00469970700003
214,bb6bd4d1-68a5-409c-87a9-293df4afe44e,60817991,31/17/1/1/1/0048,Nigeria,NGA,Plateau,Wase,0,Kumbur,0,Kumbur Primary Health Center,NHFR_2024,Public,Local Government,Primary,Primary Health Center,9.068908691,9.941711425,GRID3_EHEALTH,2024-11-11,9.94171142500005,9.06890869100005
215,beebf196-47d0-404c-ab8c-fae17f29bfff,48334193,25/07/1/1/1/0032,Nigeria,NGA,Nasarawa,Kokona,0,Hadari,1,Kurame Primary Health Clinic,NHFR_2024,Public,Local Government,Primary,Primary Health Clinic,8.93122,8.08832,GRID3_EHEALTH,2024-11-11,8.08832000000007,8.93122000000006
216,9a544b1d-4ce2-4beb-b6be-e67eb0760c98,53025427,25/08/1/1/1/0123,Nigeria,NGA,Nasarawa,Lafia,0,Arikya/Mankwar,0,Wayo Health Clinic,NHFR_2024,Public,Local Government,Primary,Primary Health Clinic,8.81075,8.75559,GRID3_EHEALTH,2024-11-11,8.75559000000004,8.81075000000003
217,ef0fa660-cc30-4426-9e50-e083fffee12f,65083642,20/03/1/1/1/0030,Nigeria,NGA,Katsina,Batsari,1,Yau Yau/Mallamawa,1,Inwala Health Clinic,NHFR_2024,Public,Local Government,Primary,Primary Health Clinic,12.95718,7.38431,GRID3_EHEALTH,2024-11-11,7.38431000000003,12.9571800000001
218,4ef94db5-86b8-4d53-82bc-91bb8d57ca82,19859866,20/26/1/1/1/0052,Nigeria,NGA,Katsina,Mani,0,Bujawa,0,Yaunawa Health Clinic,NHFR_2024,Public,Local Government,Primary,Primary Health Clinic,12.84782,8.051,GRID3_EHEALTH,2024-11-11,8.05100000000004,12.8478200000001
219,6a0edf80-1b4e-4a80-bc8a-733303e691be,68791390,20/05/1/1/1/0006,Nigeria,NGA,Katsina,Bindawa,0,Kamri,0,Bargai Health Clinic,NHFR_2024,Public,Local Government,Primary,Primary Health Clinic,12.66845,7.84395,NHFR_2024,2024-11-11,7.84395000000006,12.6684500000001
220,9fbb1c1e-305d-4576-b428-707d27d4cb68,13937069,20/01/1/1/1/0040,Nigeria,NGA,Katsina,Bakori,0,Guga,0,Magoje Health Clinic,NHFR_2024,Public,Unknown,Primary,Primary Health Center,11.66157,7.353463333,GRID3_EHEALTH,2024-11-11,7.35346333300004,11.66157
221,8de44b50-1556-4fd9-85b4-aad1f33fb9cb,58115170,11/08/1/1/1/0034,Nigeria,NGA,Ebonyi,Ishielu,0,Ezzagu 2,0,Aguobodo Health Center,NHFR_2024,Public,Local Government,Primary,Primary Health Center,6.274475098,7.718688965,GRID3_EHEALTH,2024-11-11,7.71868896500007,6.27447509800003
222,f555f707-d14c-4088-959d-61f85bdef226,47785523,22/05/1/1/1/0043,Nigeria,NGA,Kogi,Dekina,0,Ojikpadala,0,Ojuwo Primary Health Center,NHFR_2024,Public,Local Government,Primary,Primary Health Center,7.412127,7.16285,GRID3_EHEALTH,2024-11-11,7.16285000000005,7.41212700000005
223,b278a028-3390-4e6f-bd54-3f73e0b84e16,39510096,22/10/1/1/1/0040,Nigeria,NGA,Kogi,Kabba/Bunu,0,Kajola Aiyeteju,0,St Mary'S Clinic,NHFR_2024,Public,Local Government,Primary,Primary Health Clinic,7.822739,6.073244,GRID3_EHEALTH,2024-11-11,6.07324400000005,7.82273900000005
224,b26a2529-5070-4277-81de-686ebe50f44b,78203403,05/18/1/2/1/0001,Nigeria,NGA,Bauchi,Toro,0,Toro,0,Toro General Hospital,NHFR_2024,Public,State Government,Secondary,General Hospital,10.05504419,9.04222453,GRID3_EHEALTH,2024-11-11,9.04222453000006,10.0550441900001
225,046396a0-5494-497d-8651-7b98d046f0a6,40307673,25/04/1/1/1/0008,Nigeria,NGA,Nasarawa,Karu,0,Bagaji Agada,1,Bakin Kogi Health Post,NHFR_2024,Public,Local Government,Primary,Health Post,8.97346236653,7.78270406415,GRID3_EHEALTH,2024-11-11,7.78270406400003,8.97346236600003
226,dc95dfab-a122-468a-a707-ef7e1647a951,61165594,05/03/1/1/1/0003,Nigeria,NGA,Bauchi,Bogoro,0,Bar,0,Bar Primary Health Clinic,NHFR_2024,Public,Local Government,Primary,Primary Health Clinic,9.69923634,9.58826477,GRID3_EHEALTH,2024-11-11,9.58826477000002,9.69923634000003
227,f87642b4-12df-4032-a63b-42abc5834b46,75388219,05/20/1/1/1/0034,Nigeria,NGA,Bauchi,Zaki,0,Lodiyo,0,Ladari Health Post,NHFR_2024,Public,Local Government,Primary,Health Post,12.36438,10.6674,GRID3_EHEALTH,2024-11-11,10.6674,12.36438
228,c15d2db0-af48-480f-8537-78c68318259b,51361553,05/03/1/1/1/0004,Nigeria,NGA,Bauchi,Bogoro,0,Dutsen Lawan,0,Bazanshi Primary Health Clinic,NHFR_2024,Public,Local Government,Primary,Primary Health Clinic,9.71484261,9.52908241,GRID3_EHEALTH,2024-11-11,9.52908241000006,9.71484261000005
229,f6d07567-1762-4585-a8f4-5cdac1c4fcf2,59750410,05/03/1/1/1/0008,Nigeria,NGA,Bauchi,Bogoro,0,Lusa,0,Bongah Primary Health Clinic,NHFR_2024,Public,Local Government,Primary,Primary Health Clinic,9.62672528,9.5616137,GRID3_EHEALTH,2024-11-11,9.56161370000007,9.62672528000006
230,22ec118c-eb3f-4084-b588-c52ef72215ac,80386755,05/03/1/1/1/0027,Nigeria,NGA,Bauchi,Bogoro,0,Lusa,0,Mbal Primary Health Clinic,NHFR_2024,Public,Local Government,Primary,Primary Health Clinic,9.59588623,9.61730957,GRID3_EHEALTH,2024-11-11,9.61730957000003,9.59588623000009
231,660c0c83-414c-40c5-8ca2-e8476fa41874,53239411,05/15/1/1/1/0067,Nigeria,NGA,Bauchi,Ningi,0,Dingis,0,Gwam Health Clinic,NHFR_2024,Public,Local Government,Primary,Primary Health Clinic,11.21454,9.54327,GRID3_EHEALTH,2024-11-11,9.54327000000006,11.2145400000001
232,7c65c08d-780c-47ed-bbab-d78802f86cc2,31320403,05/17/1/1/1/0082,Nigeria,NGA,Bauchi,Tafawa-Balewa,0,Kardam B,0,Maijuju Tasha Primary Health Center,NHFR_2024,Public,Local Government,Primary,Primary Health Center,9.74327876,9.15765699,GRID3_EHEALTH,2024-11-11,9.15765699000002,9.74327876000007
233,0d0cfe34-a6d9-4457-b7fa-16413d5fb750,76374852,05/17/1/1/1/0041,Nigeria,NGA,Bauchi,Tafawa-Balewa,0,Lere North,0,Sigdin Shehu Primary Health Clinic,NHFR_2024,Public,Local Government,Primary,Primary Health Clinic,9.67997,9.2992,GRID3_EHEALTH,2024-11-11,9.29920000000004,9.67997000000003
234,9fc11671-d724-49bf-9203-fe3448f9b958,38494693,05/17/1/1/1/0041,Nigeria,NGA,Bauchi,Tafawa-Balewa,0,Wai A,0,Gwashe Primary Health Clinic,NHFR_2024,Public,Local Government,Primary,Primary Health Clinic,9.79235117,9.39999015,GRID3_EHEALTH,2024-11-11,9.39999015000006,9.79235117000007
235,7fd71c0c-f615-4e6e-a7e6-816ab09d5428,63117894,05/17/1/1/1/0035,Nigeria,NGA,Bauchi,Tafawa-Balewa,0,Mball,0,Sabongida Primary Health Clinic,NHFR_2024,Public,Local Government,Primary,Primary Health Clinic,9.91755979,9.81303009,GRID3_EHEALTH,2024-11-11,9.81303009000004,9.91755979000004
236,fe533afc-7283-4fab-a93a-c1cf0af5e8c3,18765297,05/17/1/1/1/0013,Nigeria,NGA,Bauchi,Tafawa-Balewa,0,Dull B,0,Burga Primary Health Center,NHFR_2024,Public,Local Government,Primary,Primary Health Clinic,9.80935007,9.84127743,GRID3_EHEALTH,2024-11-11,9.84127743000005,9.80935007000004
237,4630d9c8-9e4f-4ba1-a0d3-cda21007d6b6,77324358,05/19/1/1/1/0001,Nigeria,NGA,Bauchi,Warji,0,Tiyin A,0,Aru Primary Health Center,NHFR_2024,Public,Local Government,Primary,Primary Health Center,11.20189846,9.83237192,GRID3_EHEALTH,2024-11-11,9.83237192000007,11.20189846
238,56fbda76-655c-46d2-a299-9a69511a35ce,55546480,05/01/1/1/1/0050,Nigeria,NGA,Bauchi,Alkaleri,0,Kungibar,0,Shira Primary Health Care Center,NHFR_2024,Public,Local Government,Primary,Primary Health Center,10.05012109,10.2788768,GRID3_EHEALTH,2024-11-11,10.2788768,10.0501210900001
239,9d7dbad5-1ed0-4f5d-9131-ed04ca87e554,46639873,05/07/1/1/1/0001,Nigeria,NGA,Bauchi,Gamawa,0,Marana,0,Marana Primary Health Care Center,NHFR_2024,Public,Local Government,Primary,Primary Health Center,12.11917,10.7465,GRID3_EHEALTH,2024-11-11,10.7465,12.1191700000001
240,8875b18a-89b2-4948-a2c4-9e6552319b8b,65828171,05/12/1/1/1/0030,Nigeria,NGA,Bauchi,Katagum,0,Ragwam,0,Ragwam Health Clinic,NHFR_2024,Public,Local Government,Primary,Primary Health Clinic,11.7443473,10.10609343,GRID3_EHEALTH,2024-11-11,10.10609343,11.7443473000001
241,fadf3570-0d2c-4894-98aa-61c91c7c44b7,80172334,05/15/1/1/1/0030,Nigeria,NGA,Bauchi,Ningi,0,Dingis,0,Katsinawa Primary Health Care Center,NHFR_2024,Public,Local Government,Primary,Primary Health Center,11.14180342,9.54424276,GRID3_EHEALTH,2024-11-11,9.54424276000003,11.14180342
242,7f23884d-6704-45d8-adff-23f3416e6118,47738502,05/01/1/2/1/0001,Nigeria,NGA,Bauchi,Alkaleri,0,Alkaleri West,0,Alkaleri General Hospital,NHFR_2024,Public,State Government,Secondary,General Hospital,10.26460761,10.31482145,GRID3_EHEALTH,2024-11-11,10.3148214500001,10.26460761
243,c68bbd35-7336-44ee-bb4a-cd3d769ff416,67956384,05/03/1/2/1/0001,Nigeria,NGA,Bauchi,Bogoro,0,Bogoro,0,Bogoro General Hospital,NHFR_2024,Public,State Government,Secondary,General Hospital,9.6849616,9.60112707,GRID3_EHEALTH,2024-11-11,9.60112707000008,9.68496160000006
244,22f51ac5-97e9-4c22-8dfc-8c8eb44da044,51145355,05/09/1/2/1/0001,Nigeria,NGA,Bauchi,Giade,0,Giade A,0,Giade General Hospital,NHFR_2024,Public,State Government,Secondary,General Hospital,11.38834815,10.21120951,GRID3_EHEALTH,2024-11-11,10.2112095100001,11.3883481500001
245,c01cbb26-db4f-49f0-9fba-2cceaf9bdc95,22127344,05/12/1/2/1/0002,Nigeria,NGA,Bauchi,Katagum,0,Bakin Kasuwa,1,Azare General Hospital,NHFR_2024,Public,State Government,Secondary,General Hospital,11.68148037,10.18295787,GRID3_EHEALTH,2024-11-11,10.1829578700001,11.68148037
246,6d5fe6a4-57fc-40d9-9455-5c1c52204e29,27593252,05/13/1/2/1/0001,Nigeria,NGA,Bauchi,Kirfi,0,Wanka,0,Kirfi General Hospital,NHFR_2024,Public,State Government,Secondary,General Hospital,10.39262466,10.40360212,GRID3_EHEALTH,2024-11-11,10.4036021200001,10.39262466
247,e5af877b-93c3-4c5a-9e41-a44f1ece0a86,31840239,05/16/1/2/1/0001,Nigeria,NGA,Bauchi,Shira,0,Yana,0,Shira Yana General Hospital,NHFR_2024,Public,State Government,Secondary,General Hospital,11.44635678,10.03436045,GRID3_EHEALTH,2024-11-11,10.0343604500001,11.44635678
248,c165198a-7e99-4e5d-8860-fdff547f5b9f,47226302,05/02/1/1/1/0094,Nigeria,NGA,Bauchi,Bauchi,0,Zungur,0,Zungur Primary Health Care Center,NHFR_2024,Public,Local Government,Primary,Primary Health Center,9.97001200036,9.78866500014,GRID3_EHEALTH,2024-11-11,9.78866500000004,9.97001200000005
249,e30d5780-0def-4c08-b08e-b0a39f33893e,86645541,05/02/1/2/1/0002,Nigeria,NGA,Bauchi,Bauchi,0,Birshi,0,Bayara General Hospital,NHFR_2024,Public,State Government,Secondary,General Hospital,10.2244013,9.73599433,GRID3_EHEALTH,2024-11-11,9.73599433000004,10.2244013000001
250,891fe72a-dc38-4762-b2a2-606a830abff3,46547648,05/05/1/2/1/0001,Nigeria,NGA,Bauchi,Darazo,0,Darazo West,0,Darazo General Hospital,NHFR_2024,Public,State Government,Secondary,General Hospital,10.995188,10.408971,GRID3_EHEALTH,2024-11-11,10.4089710000001,10.995188
251,e8e84c27-7454-449e-8225-40172321eaf1,28154065,05/10/1/1/1/0026,Nigeria,NGA,Bauchi,Itas/Gadau,0,Mashema,0,Majiya Health Clinic,NHFR_2024,Public,Local Government,Primary,Primary Health Clinic,11.83559,9.897394,GRID3_EHEALTH,2024-11-11,9.89739400000008,11.83559
252,9ec32c38-e1f6-4334-a162-40d52d61d422,48408174,05/05/1/1/1/0032,Nigeria,NGA,Bauchi,Darazo,0,Lago,0,Lago Primary Health Center,NHFR_2024,Public,Local Government,Primary,Primary Health Center,11.18173033,10.48927149,GRID3_EHEALTH,2024-11-11,10.48927149,11.18173033
253,9f94321a-8353-4b60-9eff-bdf1916504bf,64776048,37/02/1/1/2/0013,Nigeria,NGA,Fct,Bwari,0,Usuma,1,Divine Mercy Hospital & Diag Centre,NHFR_2024,Private,Unknown,Primary,Primary Health Center,9.153503418,7.349914551,GRID3_EHEALTH,2024-11-11,7.34991455100004,9.15350341800007
254,f568b745-2380-4a09-adae-7c319adaa4a2,37233842,15/03/1/1/1/0025,Nigeria,NGA,Gombe,Billiri,0,Tal,0,Kwiwulang Health Post,NHFR_2024,Public,Local Government,Primary,Health Post,9.7654,11.11696,GRID3_EHEALTH,2024-11-11,11.1169600000001,9.76540000000006
255,b06710c1-d4d9-4cac-8438-0cf597a310b6,63702994,15/03/1/1/1/0068,Nigeria,NGA,Gombe,Billiri,0,Banganje North,0,Sabon Layi Primary Health Care Center,NHFR_2024,Public,Local Government,Primary,Primary Health Center,9.90005,11.09375,GRID3_EHEALTH,2024-11-11,11.0937500000001,9.90005000000003
256,d050c278-a6ab-4115-bc3e-e52e6a5ca2da,75483045,15/11/1/1/1/0001,Nigeria,NGA,Gombe,Yamaltu/Deba,0,Nono/Kunnuwal/W/Birdaka,0,Boltongo Health Post,NHFR_2024,Public,Local Government,Primary,Health Post,10.16563,11.31833,GRID3_EHEALTH,2024-11-11,11.3183300000001,10.16563
257,c7332cd8-1950-4c5a-b89e-34e8b2ab78d4,33782959,15/03/1/1/1/0030,Nigeria,NGA,Gombe,Billiri,0,Banganje South,0,Lakarai Health Post,NHFR_2024,Public,Local Government,Primary,Health Post,9.84008789,11.19232178,GRID3_EHEALTH,2024-11-11,11.19232178,9.84008789000005
258,4c3e20f5-bc5a-408e-8139-06724a017193,20770488,15/03/1/1/1/0033,Nigeria,NGA,Gombe,Billiri,0,Billiri North,0,Lasale Health Clinic,NHFR_2024,Public,Local Government,Primary,Primary Health Clinic,9.950283977,11.21101328,GRID3_EHEALTH,2024-11-11,11.21101328,9.95028397700002
259,beabe487-a80c-4dc0-a54d-a76d1bc3934a,16666191,15/10/1/1/1/0046,Nigeria,NGA,Gombe,Shongom,0,Lalaipido,0,Tedmukzu Primary Health Clinic,NHFR_2024,Public,Local Government,Primary,Primary Health Clinic,9.684082031,11.20288086,GRID3_EHEALTH,2024-11-11,11.2028808600001,9.68408203100006
260,d319d818-d125-4083-b0db-d549506bb4e8,64539226,15/04/1/1/1/0063,Nigeria,NGA,Gombe,Dukku,0,Wuro Tale,0,Timbu Mayo Primary Health Clinic,NHFR_2024,Public,Local Government,Primary,Primary Health Clinic,10.92572022,10.73687744,GRID3_EHEALTH,2024-11-11,10.7368774400001,10.9257202200001
261,c75a60e4-b45a-4ad2-beea-c9d08bd899a9,21156237,15/11/1/1/1/0014,Nigeria,NGA,Gombe,Yamaltu/Deba,0,Hinna,0,Jangargari Health Post,NHFR_2024,Public,Local Government,Primary,Health Post,10.27911377,11.54449463,GRID3_EHEALTH,2024-11-11,11.54449463,10.27911377
262,d4944e83-c48f-44e5-83a5-64e45492f87b,13161686,15/01/1/1/1/0001,Nigeria,NGA,Gombe,Akko,0,Akko,0,Akko Primary Health Care Center,NHFR_2024,Public,Local Government,Primary,Primary Health Center,10.29052734,10.96569824,GRID3_EHEALTH,2024-11-11,10.96569824,10.29052734
263,1dcb3ecb-ee83-496b-bc10-aa7b698a1af3,63277594,15/02/1/1/1/0012,Nigeria,NGA,Gombe,Balanga,0,Swa,0,Gasi Primary Health Clinic,NHFR_2024,Public,Local Government,Primary,Primary Health Clinic,10.06408691,11.68652344,GRID3_EHEALTH,2024-11-11,11.68652344,10.0640869100001
264,e65023ac-a42a-4afc-8ff1-d21224fc0b64,27559551,15/06/1/2/1/0001,Nigeria,NGA,Gombe,Gombe,0,Bolari East,1,301 Army Barracks Clinic,NHFR_2024,Public,Military & Paramilitary formations,Secondary,Unknown,10.27612305,11.18572998,GRID3_EHEALTH,2024-11-11,11.1857299800001,10.27612305
265,408133af-84c1-4622-97d1-13201d629018,49174574,31/03/1/1/1/0032,Nigeria,NGA,Plateau,Bokkos,0,Mushere West,0,Kaban Primary Health Center,NHFR_2024,Public,Local Government,Primary,Primary Health Center,9.084289551,8.992675781,GRID3_EHEALTH,2024-11-11,8.99267578100006,9.08428955100004
266,96f97c77-6d80-48b3-8965-19b069fabdfc,46065552,31/11/1/1/2/0013,Nigeria,NGA,Plateau,Mangu,0,Pushit,0,Gohotkung Women In Health Clinic,NHFR_2024,Public,Local Government,Primary,Primary Health Clinic,9.432312012,9.287109375,GRID3_EHEALTH,2024-11-11,9.28710937500006,9.43231201200007
267,8d2d9661-c4b8-4583-8e5e-badad2e994c3,86105785,31/11/1/1/1/0057,Nigeria,NGA,Plateau,Mangu,0,Halle,0,Mairana Primary Health Clinic,NHFR_2024,Public,Local Government,Primary,Health Post,9.510314941,9.066894531,GRID3_EHEALTH,2024-11-11,9.06689453100006,9.51031494100004
268,d0af90e1-3c04-4235-b474-509e407d1538,19768655,31/04/1/2/1/0002,Nigeria,NGA,Plateau,Jos East,0,Jarawa Kogi A,0,Angware General Hospital,NHFR_2024,Public,State Government,Secondary,General Hospital,9.992753729,9.100143943,GRID3_EHEALTH,2024-11-11,9.10014394300003,9.99275372900006
269,775f7fd6-bd48-43bb-8ba6-d34fb2c4dd42,52401925,31/10/1/1/1/0093,Nigeria,NGA,Plateau,Langtang South,0,Mabudi North,1,Mabudi Primary Health Center,NHFR_2024,Public,Local Government,Primary,Primary Health Clinic,8.73369,9.77725,NHFR_2024,2024-11-11,9.77725000000004,8.73369000000003
270,8a4ace60-74e6-451e-996a-ce3d6dfef965,69044411,24/10/1/2/2/0008,Nigeria,NGA,Lagos,Ifako/Ijaye,0,Agbado Dalemo,1,Blooming Care Hospital,NHFR_2024,Private,For Profit,Primary,Primary Health Clinic,6.6397,3.32968,GRID3_EHEALTH,2024-11-11,3.32968000000005,6.63970000000005
271,159f4bfd-d8e7-4c7a-81b9-2485db333005,68265834,31/12/1/2/1/0001,Nigeria,NGA,Plateau,Mikang,0,Tunkus,0,Tunkus General Hospital,NHFR_2024,Public,State Government,Secondary,General Hospital,9.015319824,9.602722168,GRID3_EHEALTH,2024-11-11,9.60272216800007,9.01531982400008
272,e4256320-3139-41b1-a74c-bc8574fddfd8,59709134,31/05/1/3/2/0001,Nigeria,NGA,Plateau,Jos North,0,Jenta Adamu,1,Bingham University Teaching Hospital,NHFR_2024,Private,For Profit,Tertiary,Teaching/TertiaryHospita,9.930426342,8.878167408,GRID3_EHEALTH,2024-11-11,8.87816740800002,9.93042634200003